{"KR": {"fmt": "%S %C%D%n%A%n%O%n%N%n%Z", "id": "data/KR", "key": "KR", "lang": "ko", "languages": "ko", "lfmt": "%N%n%O%n%A%n%D%n%C%n%S%n%Z", "name": "SOUTH KOREA", "posturl": "http://www.epost.go.kr/search/zipcode/search5.jsp", "require": "ACSZ", "state_name_type": "do_si", "sub_isoids": "42~41~48~47~29~27~30~26~11~50~31~28~46~45~49~44~43", "sub_keys": "강원도~경기도~경상남도~경상북도~광주광역시~대구광역시~대전광역시~부산광역시~서울특별시~세종특별자치시~울산광역시~인천광역시~전라남도~전라북도~제주특별자치도~충청남도~충청북도", "sub_lnames": "Gangwon-do~Gyeonggi-do~Gyeongsangnam-do~Gyeongsangbuk-do~Gwangju~Daegu~Daejeon~Busan~Seoul~Sejong~Ulsan~Incheon~Jeollanam-do~Jeollabuk-do~Jeju-do~Chungcheongnam-do~Chungcheongbuk-do", "sub_mores": "true~true~true~true~true~true~true~true~true~true~true~true~true~true~true~true~true", "sub_names": "강원~경기~경남~경북~광주~대구~대전~부산~서울~세종~울산~인천~전남~전북~제주~충남~충북", "sub_zipexs": "25627~12410~53286~38540~62394~42456~34316~46706~06321~30065~44782~23024~59222~56445~63563~32832~28006", "sub_zips": "2[456]\\d{2}~1[0-8]\\d{2}~5[0-3]\\d{2}~(?:3[6-9]|40)\\d{2}~6[12]\\d{2}~4[123]\\d{2}~3[45]\\d{2}~4[6-9]\\d{2}~0[1-8]\\d{2}~30[01]\\d~4[45]\\d{2}~2[1-3]\\d{2}~5[7-9]\\d{2}~5[4-6]\\d{2}~63[0-356]\\d~3[1-3]\\d{2}~2[789]\\d{2}", "sublocality_name_type": "district", "upper": "Z", "zip": "\\d{5}", "zipex": "03051"}, "KR/강원도": {"id": "data/KR/강원도", "isoid": "42", "key": "강원도", "lang": "ko", "lname": "Gangwon-do", "name": "강원", "sub_keys": "강릉시~고성군~동해시~삼척시~속초시~양구군~양양군~영월군~원주시~인제군~정선군~철원군~춘천시~태백시~평창군~홍천군~화천군~횡성군", "sub_lnames": "Gangneung-si~Goseong-gun~Donghae-si~Samcheok-si~Sokcho-si~Yanggu-gun~Yangyang-gun~Yeongwol-gun~Wonju-si~Inje-gun~Jeongseon-gun~Cheorwon-gun~Chuncheon-si~Taebaek-si~Pyeongchang-gun~Hongcheon-gun~Hwacheon-gun~Hoengseong-gun", "sub_zips": "25[4-6]~247~25[78]~259~24[89]~245~250~262~26[3-5]~246~261~240~24[2-4]~260~253~251~241~252", "zip": "2[456]\\d{2}", "zipex": "25627"}, "KR/강원도/강릉시": {"id": "data/KR/강원도/강릉시", "key": "강릉시", "lang": "ko", "lname": "Gangneung-si", "zip": "25[4-6]"}, "KR/강원도/고성군": {"id": "data/KR/강원도/고성군", "key": "고성군", "lang": "ko", "lname": "Goseong-gun", "zip": "247"}, "KR/강원도/동해시": {"id": "data/KR/강원도/동해시", "key": "동해시", "lang": "ko", "lname": "Donghae-si", "zip": "25[78]"}, "KR/강원도/삼척시": {"id": "data/KR/강원도/삼척시", "key": "삼척시", "lang": "ko", "lname": "Samcheok-si", "zip": "259"}, "KR/강원도/속초시": {"id": "data/KR/강원도/속초시", "key": "속초시", "lang": "ko", "lname": "Sokcho-si", "zip": "24[89]"}, "KR/강원도/양구군": {"id": "data/KR/강원도/양구군", "key": "양구군", "lang": "ko", "lname": "Yanggu-gun", "zip": "245"}, "KR/강원도/양양군": {"id": "data/KR/강원도/양양군", "key": "양양군", "lang": "ko", "lname": "Yangyang-gun", "zip": "250"}, "KR/강원도/영월군": {"id": "data/KR/강원도/영월군", "key": "영월군", "lang": "ko", "lname": "Yeongwol-gun", "zip": "262"}, "KR/강원도/원주시": {"id": "data/KR/강원도/원주시", "key": "원주시", "lang": "ko", "lname": "Wonju-si", "zip": "26[3-5]"}, "KR/강원도/인제군": {"id": "data/KR/강원도/인제군", "key": "인제군", "lang": "ko", "lname": "Inje-gun", "zip": "246"}, "KR/강원도/정선군": {"id": "data/KR/강원도/정선군", "key": "정선군", "lang": "ko", "lname": "Jeongseon-gun", "zip": "261"}, "KR/강원도/철원군": {"id": "data/KR/강원도/철원군", "key": "철원군", "lang": "ko", "lname": "Cheorwon-gun", "zip": "240"}, "KR/강원도/춘천시": {"id": "data/KR/강원도/춘천시", "key": "춘천시", "lang": "ko", "lname": "Chuncheon-si", "zip": "24[2-4]"}, "KR/강원도/태백시": {"id": "data/KR/강원도/태백시", "key": "태백시", "lang": "ko", "lname": "Taebaek-si", "zip": "260"}, "KR/강원도/평창군": {"id": "data/KR/강원도/평창군", "key": "평창군", "lang": "ko", "lname": "Pyeongchang-gun", "zip": "253"}, "KR/강원도/홍천군": {"id": "data/KR/강원도/홍천군", "key": "홍천군", "lang": "ko", "lname": "Hongcheon-gun", "zip": "251"}, "KR/강원도/화천군": {"id": "data/KR/강원도/화천군", "key": "화천군", "lang": "ko", "lname": "Hwacheon-gun", "zip": "241"}, "KR/강원도/횡성군": {"id": "data/KR/강원도/횡성군", "key": "횡성군", "lang": "ko", "lname": "Hoengseong-gun", "zip": "252"}, "KR/경기도": {"id": "data/KR/경기도", "isoid": "41", "key": "경기도", "lang": "ko", "lname": "Gyeonggi-do", "name": "경기", "sub_keys": "가평군~고양시~과천시~광명시~광주시~구리시~군포시~김포시~남양주시~동두천시~부천시~성남시~수원시~시흥시~안산시~안성시~안양시~양주시~양평군~여주시~연천군~오산시~용인시~의왕시~의정부시~이천시~파주시~평택시~포천시~하남시~화성시", "sub_lnames": "Gapyeong-gun~Goyang-si~Gwacheon-si~Gwangmyeong-si~Gwangju-si~Guri-si~Gunpo-si~Gimpo-si~Namyangju-si~Dongducheon-si~Bucheon-si~Seongnam-si~Suwon-si~Siheung-si~Ansan-si~Anseong-si~Anyang-si~Yangju-si~Yangpyeong-gun~Yeoju-si~Yeoncheon-gun~Osan-si~Yongin-si~Uiwang-si~Uijeongbu-si~Icheon-si~Paju-si~Pyeongtaek-si~Pocheon-si~Hanam-si~Hwaseong-si", "sub_mores": "false~true~false~false~false~false~false~false~false~false~true~true~true~false~true~false~true~false~false~false~false~false~true~false~false~false~false~false~false~false~false", "sub_zips": "124~10[2-5]~138~14[23]~12[78]~119~158~10[01]~12[0-3]~113~14[4-7]~13[1-6]~16[2-7]~1(?:49|5[01])~15[2-6]~17[56]~1(?:39|4[01])~11[45]~125~126~110~181~1(?:6[89]|7[01])~16[01]~11[6-8]~17[34]~10[89]~1(?:7[7-9]|80)~111~1(?:29|30)~18[2-6]", "zip": "1[0-8]\\d{2}", "zipex": "12410"}, "KR/경기도/가평군": {"id": "data/KR/경기도/가평군", "key": "가평군", "lang": "ko", "lname": "Gapyeong-gun", "zip": "124"}, "KR/경기도/고양시": {"id": "data/KR/경기도/고양시", "key": "고양시", "lang": "ko", "lname": "Goyang-si", "sub_keys": "덕양구~일산동구~일산서구", "sub_lnames": "Deogyang-gu~Ilsandong-gu~Ilsanseo-gu", "sub_zips": "10[245]~10[2-4]~10[2-4]", "zip": "10[2-5]"}, "KR/경기도/고양시/덕양구": {"id": "data/KR/경기도/고양시/덕양구", "key": "덕양구", "lang": "ko", "lname": "Deogyang-gu", "zip": "10[245]"}, "KR/경기도/고양시/일산동구": {"id": "data/KR/경기도/고양시/일산동구", "key": "일산동구", "lang": "ko", "lname": "Ilsandong-gu", "zip": "10[2-4]"}, "KR/경기도/고양시/일산서구": {"id": "data/KR/경기도/고양시/일산서구", "key": "일산서구", "lang": "ko", "lname": "Ilsanseo-gu", "zip": "10[2-4]"}, "KR/경기도/과천시": {"id": "data/KR/경기도/과천시", "key": "과천시", "lang": "ko", "lname": "Gwacheon-si", "zip": "138"}, "KR/경기도/광명시": {"id": "data/KR/경기도/광명시", "key": "광명시", "lang": "ko", "lname": "Gwangmyeong-si", "zip": "14[23]"}, "KR/경기도/광주시": {"id": "data/KR/경기도/광주시", "key": "광주시", "lang": "ko", "lname": "Gwangju-si", "zip": "12[78]"}, "KR/경기도/구리시": {"id": "data/KR/경기도/구리시", "key": "구리시", "lang": "ko", "lname": "Guri-si", "zip": "119"}, "KR/경기도/군포시": {"id": "data/KR/경기도/군포시", "key": "군포시", "lang": "ko", "lname": "Gunpo-si", "zip": "158"}, "KR/경기도/김포시": {"id": "data/KR/경기도/김포시", "key": "김포시", "lang": "ko", "lname": "Gimpo-si", "zip": "10[01]"}, "KR/경기도/남양주시": {"id": "data/KR/경기도/남양주시", "key": "남양주시", "lang": "ko", "lname": "Namyangju-si", "zip": "12[0-3]"}, "KR/경기도/동두천시": {"id": "data/KR/경기도/동두천시", "key": "동두천시", "lang": "ko", "lname": "Dongducheon-si", "zip": "113"}, "KR/경기도/부천시": {"id": "data/KR/경기도/부천시", "key": "부천시", "lang": "ko", "lname": "Bucheon-si", "sub_keys": "소사구~오정구~원미구", "sub_lnames": "Sosa-gu~Ojeong-gu~Wonmi-gu", "sub_zips": "14[67]~14[45]~14[456]", "zip": "14[4-7]"}, "KR/경기도/부천시/소사구": {"id": "data/KR/경기도/부천시/소사구", "key": "소사구", "lang": "ko", "lname": "Sosa-gu", "zip": "14[67]"}, "KR/경기도/부천시/오정구": {"id": "data/KR/경기도/부천시/오정구", "key": "오정구", "lang": "ko", "lname": "Ojeong-gu", "zip": "14[45]"}, "KR/경기도/부천시/원미구": {"id": "data/KR/경기도/부천시/원미구", "key": "원미구", "lang": "ko", "lname": "Wonmi-gu", "zip": "14[456]"}, "KR/경기도/성남시": {"id": "data/KR/경기도/성남시", "key": "성남시", "lang": "ko", "lname": "Seongnam-si", "sub_keys": "분당구~수정구~중원구", "sub_lnames": "Bundang-gu~Sujeong-gu~Jungwon-gu", "sub_zips": "13[3-6]~13[1-46]~13[1-4]", "zip": "13[1-6]"}, "KR/경기도/성남시/분당구": {"id": "data/KR/경기도/성남시/분당구", "key": "분당구", "lang": "ko", "lname": "Bundang-gu", "zip": "13[3-6]"}, "KR/경기도/성남시/수정구": {"id": "data/KR/경기도/성남시/수정구", "key": "수정구", "lang": "ko", "lname": "Sujeong-gu", "zip": "13[1-46]"}, "KR/경기도/성남시/중원구": {"id": "data/KR/경기도/성남시/중원구", "key": "중원구", "lang": "ko", "lname": "Jungwon-gu", "zip": "13[1-4]"}, "KR/경기도/수원시": {"id": "data/KR/경기도/수원시", "key": "수원시", "lang": "ko", "lname": "Suwon-si", "sub_keys": "권선구~영통구~장안구~팔달구", "sub_lnames": "Gwonseon-gu~Yeongtong-gu~Jangan-gu~Paldal-gu", "sub_zips": "16[3-6]~16[245-7]~16[2-4]~16[2-6]", "zip": "16[2-7]"}, "KR/경기도/수원시/권선구": {"id": "data/KR/경기도/수원시/권선구", "key": "권선구", "lang": "ko", "lname": "Gwonseon-gu", "zip": "16[3-6]"}, "KR/경기도/수원시/영통구": {"id": "data/KR/경기도/수원시/영통구", "key": "영통구", "lang": "ko", "lname": "Yeongtong-gu", "zip": "16[245-7]"}, "KR/경기도/수원시/장안구": {"id": "data/KR/경기도/수원시/장안구", "key": "장안구", "lang": "ko", "lname": "Jangan-gu", "zip": "16[2-4]"}, "KR/경기도/수원시/팔달구": {"id": "data/KR/경기도/수원시/팔달구", "key": "팔달구", "lang": "ko", "lname": "Paldal-gu", "zip": "16[2-6]"}, "KR/경기도/시흥시": {"id": "data/KR/경기도/시흥시", "key": "시흥시", "lang": "ko", "lname": "Siheung-si", "zip": "1(?:49|5[01])"}, "KR/경기도/안산시": {"id": "data/KR/경기도/안산시", "key": "안산시", "lang": "ko", "lname": "Ansan-si", "sub_keys": "단원구~상록구", "sub_lnames": "Danwon-gu~Sangnok-gu", "sub_zips": "15[2-6]~15[2-6]", "zip": "15[2-6]"}, "KR/경기도/안산시/단원구": {"id": "data/KR/경기도/안산시/단원구", "key": "단원구", "lang": "ko", "lname": "Danwon-gu", "zip": "15[2-6]"}, "KR/경기도/안산시/상록구": {"id": "data/KR/경기도/안산시/상록구", "key": "상록구", "lang": "ko", "lname": "Sangnok-gu", "zip": "15[2-6]"}, "KR/경기도/안성시": {"id": "data/KR/경기도/안성시", "key": "안성시", "lang": "ko", "lname": "Anseong-si", "zip": "17[56]"}, "KR/경기도/안양시": {"id": "data/KR/경기도/안양시", "key": "안양시", "lang": "ko", "lname": "Anyang-si", "sub_keys": "동안구~만안구", "sub_lnames": "Dongan-gu~Manan-gu", "sub_zips": "1(?:39|4[01])~1(?:39|40)", "zip": "1(?:39|4[01])"}, "KR/경기도/안양시/동안구": {"id": "data/KR/경기도/안양시/동안구", "key": "동안구", "lang": "ko", "lname": "Dongan-gu", "zip": "1(?:39|4[01])"}, "KR/경기도/안양시/만안구": {"id": "data/KR/경기도/안양시/만안구", "key": "만안구", "lang": "ko", "lname": "Manan-gu", "zip": "1(?:39|40)"}, "KR/경기도/양주시": {"id": "data/KR/경기도/양주시", "key": "양주시", "lang": "ko", "lname": "Yangju-si", "zip": "11[45]"}, "KR/경기도/양평군": {"id": "data/KR/경기도/양평군", "key": "양평군", "lang": "ko", "lname": "Yangpyeong-gun", "zip": "125"}, "KR/경기도/여주시": {"id": "data/KR/경기도/여주시", "key": "여주시", "lang": "ko", "lname": "Yeoju-si", "zip": "126"}, "KR/경기도/연천군": {"id": "data/KR/경기도/연천군", "key": "연천군", "lang": "ko", "lname": "Yeoncheon-gun", "zip": "110"}, "KR/경기도/오산시": {"id": "data/KR/경기도/오산시", "key": "오산시", "lang": "ko", "lname": "Osan-si", "zip": "181"}, "KR/경기도/용인시": {"id": "data/KR/경기도/용인시", "key": "용인시", "lang": "ko", "lname": "Yongin-si", "sub_keys": "기흥구~수지구~처인구", "sub_lnames": "Giheung-gu~Suji-gu~Cheoin-gu", "sub_zips": "1(?:6[89]|7[01])~16[89]~1(?:6[89]|7[01])", "zip": "1(?:6[89]|7[01])"}, "KR/경기도/용인시/기흥구": {"id": "data/KR/경기도/용인시/기흥구", "key": "기흥구", "lang": "ko", "lname": "Giheung-gu", "zip": "1(?:6[89]|7[01])"}, "KR/경기도/용인시/수지구": {"id": "data/KR/경기도/용인시/수지구", "key": "수지구", "lang": "ko", "lname": "Suji-gu", "zip": "16[89]"}, "KR/경기도/용인시/처인구": {"id": "data/KR/경기도/용인시/처인구", "key": "처인구", "lang": "ko", "lname": "Cheoin-gu", "zip": "1(?:6[89]|7[01])"}, "KR/경기도/의왕시": {"id": "data/KR/경기도/의왕시", "key": "의왕시", "lang": "ko", "lname": "Uiwang-si", "zip": "16[01]"}, "KR/경기도/의정부시": {"id": "data/KR/경기도/의정부시", "key": "의정부시", "lang": "ko", "lname": "Uijeongbu-si", "zip": "11[6-8]"}, "KR/경기도/이천시": {"id": "data/KR/경기도/이천시", "key": "이천시", "lang": "ko", "lname": "Icheon-si", "zip": "17[34]"}, "KR/경기도/파주시": {"id": "data/KR/경기도/파주시", "key": "파주시", "lang": "ko", "lname": "Paju-si", "zip": "10[89]"}, "KR/경기도/평택시": {"id": "data/KR/경기도/평택시", "key": "평택시", "lang": "ko", "lname": "Pyeongtaek-si", "zip": "1(?:7[7-9]|80)"}, "KR/경기도/포천시": {"id": "data/KR/경기도/포천시", "key": "포천시", "lang": "ko", "lname": "Pocheon-si", "zip": "111"}, "KR/경기도/하남시": {"id": "data/KR/경기도/하남시", "key": "하남시", "lang": "ko", "lname": "Hanam-si", "zip": "1(?:29|30)"}, "KR/경기도/화성시": {"id": "data/KR/경기도/화성시", "key": "화성시", "lang": "ko", "lname": "Hwaseong-si", "zip": "18[2-6]"}, "KR/경상남도": {"id": "data/KR/경상남도", "isoid": "48", "key": "경상남도", "lang": "ko", "lname": "Gyeongsangnam-do", "name": "경남", "sub_keys": "거제시~거창군~고성군~김해시~남해군~밀양시~사천시~산청군~양산시~의령군~진주시~창녕군~창원시~통영시~하동군~함안군~함양군~합천군", "sub_lnames": "Geoje-si~Geochang-gun~Goseong-gun~Gimhae-si~Namhae-gun~Miryang-si~Sacheon-si~Sancheong-gun~Yangsan-si~Uiryeong-gun~Jinju-si~Changnyeong-gun~Changwon-si~Tongyeong-si~Hadong-gun~Haman-gun~Hamyang-gun~Hapcheon-gun", "sub_mores": "false~false~false~false~false~false~false~false~false~false~false~false~true~false~false~false~false~false", "sub_zips": "53[23]~501~529~5(?:0[89]|10)~524~504~525~522~50[56]~521~52[6-8]~503~51[2-7]~53[01]~523~520~500~502", "zip": "5[0-3]\\d{2}", "zipex": "53286"}, "KR/경상남도/거제시": {"id": "data/KR/경상남도/거제시", "key": "거제시", "lang": "ko", "lname": "Geoje-si", "zip": "53[23]"}, "KR/경상남도/거창군": {"id": "data/KR/경상남도/거창군", "key": "거창군", "lang": "ko", "lname": "Geochang-gun", "zip": "501"}, "KR/경상남도/고성군": {"id": "data/KR/경상남도/고성군", "key": "고성군", "lang": "ko", "lname": "Goseong-gun", "zip": "529"}, "KR/경상남도/김해시": {"id": "data/KR/경상남도/김해시", "key": "김해시", "lang": "ko", "lname": "Gimhae-si", "zip": "5(?:0[89]|10)"}, "KR/경상남도/남해군": {"id": "data/KR/경상남도/남해군", "key": "남해군", "lang": "ko", "lname": "Namhae-gun", "zip": "524"}, "KR/경상남도/밀양시": {"id": "data/KR/경상남도/밀양시", "key": "밀양시", "lang": "ko", "lname": "Miryang-si", "zip": "504"}, "KR/경상남도/사천시": {"id": "data/KR/경상남도/사천시", "key": "사천시", "lang": "ko", "lname": "Sacheon-si", "zip": "525"}, "KR/경상남도/산청군": {"id": "data/KR/경상남도/산청군", "key": "산청군", "lang": "ko", "lname": "Sancheong-gun", "zip": "522"}, "KR/경상남도/양산시": {"id": "data/KR/경상남도/양산시", "key": "양산시", "lang": "ko", "lname": "Yangsan-si", "zip": "50[56]"}, "KR/경상남도/의령군": {"id": "data/KR/경상남도/의령군", "key": "의령군", "lang": "ko", "lname": "Uiryeong-gun", "zip": "521"}, "KR/경상남도/진주시": {"id": "data/KR/경상남도/진주시", "key": "진주시", "lang": "ko", "lname": "Jinju-si", "zip": "52[6-8]"}, "KR/경상남도/창녕군": {"id": "data/KR/경상남도/창녕군", "key": "창녕군", "lang": "ko", "lname": "Changnyeong-gun", "zip": "503"}, "KR/경상남도/창원시": {"id": "data/KR/경상남도/창원시", "key": "창원시", "lang": "ko", "lname": "Changwon-si", "sub_keys": "마산합포구~마산회원구~성산구~의창구~진해구", "sub_lnames": "Masanhappo-gu~Masanhoewon-gu~Seongsan-gu~Uichang-gu~Jinhae-gu", "sub_zips": "51[237]~51[23]~51[457]~51[1-4]~51[5-7]", "zip": "51[2-7]"}, "KR/경상남도/창원시/마산합포구": {"id": "data/KR/경상남도/창원시/마산합포구", "key": "마산합포구", "lang": "ko", "lname": "Masanhappo-gu", "zip": "51[237]"}, "KR/경상남도/창원시/마산회원구": {"id": "data/KR/경상남도/창원시/마산회원구", "key": "마산회원구", "lang": "ko", "lname": "Masanhoewon-gu", "zip": "51[23]"}, "KR/경상남도/창원시/성산구": {"id": "data/KR/경상남도/창원시/성산구", "key": "성산구", "lang": "ko", "lname": "Seongsan-gu", "zip": "51[457]"}, "KR/경상남도/창원시/의창구": {"id": "data/KR/경상남도/창원시/의창구", "key": "의창구", "lang": "ko", "lname": "Uichang-gu", "zip": "51[1-4]"}, "KR/경상남도/창원시/진해구": {"id": "data/KR/경상남도/창원시/진해구", "key": "진해구", "lang": "ko", "lname": "Jinhae-gu", "zip": "51[5-7]"}, "KR/경상남도/통영시": {"id": "data/KR/경상남도/통영시", "key": "통영시", "lang": "ko", "lname": "Tongyeong-si", "zip": "53[01]"}, "KR/경상남도/하동군": {"id": "data/KR/경상남도/하동군", "key": "하동군", "lang": "ko", "lname": "Hadong-gun", "zip": "523"}, "KR/경상남도/함안군": {"id": "data/KR/경상남도/함안군", "key": "함안군", "lang": "ko", "lname": "Haman-gun", "zip": "520"}, "KR/경상남도/함양군": {"id": "data/KR/경상남도/함양군", "key": "함양군", "lang": "ko", "lname": "Hamyang-gun", "zip": "500"}, "KR/경상남도/합천군": {"id": "data/KR/경상남도/합천군", "key": "합천군", "lang": "ko", "lname": "Hapcheon-gun", "zip": "502"}, "KR/경상북도": {"id": "data/KR/경상북도", "isoid": "47", "key": "경상북도", "lang": "ko", "lname": "Gyeongsangbuk-do", "name": "경북", "sub_keys": "경산시~경주시~고령군~구미시~군위군~김천시~문경시~봉화군~상주시~성주군~안동시~영덕군~영양군~영주시~영천시~예천군~울릉군~울진군~의성군~청도군~청송군~칠곡군~포항시", "sub_lnames": "Gyeongsan-si~Gyeongju-si~Goryeong-gun~Gumi-si~Gunwi-gun~Gimcheon-si~Mungyeong-si~Bonghwa-gun~Sangju-si~Seongju-gun~Andong-si~Yeongdeok-gun~Yeongyang-gun~Yeongju-si~Yeongcheon-si~Yecheon-gun~Ulleung-gun~Uljin-gun~Uiseong-gun~Cheongdo-gun~Cheongsong-gun~Chilgok-gun~Pohang-si", "sub_mores": "false~false~false~false~false~false~false~false~false~false~false~false~false~false~false~false~false~false~false~false~false~false~true", "sub_zips": "38[4-6]~38[0-2]~401~39[1-4]~390~39[56]~3(?:69|70)~362~37[12]~400~36[67]~364~365~36[01]~38[89]~368~402~363~373~383~374~39[89]~37[5-9]", "zip": "(?:3[6-9]|40)\\d{2}", "zipex": "38540"}, "KR/경상북도/경산시": {"id": "data/KR/경상북도/경산시", "key": "경산시", "lang": "ko", "lname": "Gyeongsan-si", "zip": "38[4-6]"}, "KR/경상북도/경주시": {"id": "data/KR/경상북도/경주시", "key": "경주시", "lang": "ko", "lname": "Gyeongju-si", "zip": "38[0-2]"}, "KR/경상북도/고령군": {"id": "data/KR/경상북도/고령군", "key": "고령군", "lang": "ko", "lname": "Goryeong-gun", "zip": "401"}, "KR/경상북도/구미시": {"id": "data/KR/경상북도/구미시", "key": "구미시", "lang": "ko", "lname": "Gumi-si", "zip": "39[1-4]"}, "KR/경상북도/군위군": {"id": "data/KR/경상북도/군위군", "key": "군위군", "lang": "ko", "lname": "Gunwi-gun", "zip": "390"}, "KR/경상북도/김천시": {"id": "data/KR/경상북도/김천시", "key": "김천시", "lang": "ko", "lname": "Gimcheon-si", "zip": "39[56]"}, "KR/경상북도/문경시": {"id": "data/KR/경상북도/문경시", "key": "문경시", "lang": "ko", "lname": "Mungyeong-si", "zip": "3(?:69|70)"}, "KR/경상북도/봉화군": {"id": "data/KR/경상북도/봉화군", "key": "봉화군", "lang": "ko", "lname": "Bonghwa-gun", "zip": "362"}, "KR/경상북도/상주시": {"id": "data/KR/경상북도/상주시", "key": "상주시", "lang": "ko", "lname": "Sangju-si", "zip": "37[12]"}, "KR/경상북도/성주군": {"id": "data/KR/경상북도/성주군", "key": "성주군", "lang": "ko", "lname": "Seongju-gun", "zip": "400"}, "KR/경상북도/안동시": {"id": "data/KR/경상북도/안동시", "key": "안동시", "lang": "ko", "lname": "Andong-si", "zip": "36[67]"}, "KR/경상북도/영덕군": {"id": "data/KR/경상북도/영덕군", "key": "영덕군", "lang": "ko", "lname": "Yeongdeok-gun", "zip": "364"}, "KR/경상북도/영양군": {"id": "data/KR/경상북도/영양군", "key": "영양군", "lang": "ko", "lname": "Yeongyang-gun", "zip": "365"}, "KR/경상북도/영주시": {"id": "data/KR/경상북도/영주시", "key": "영주시", "lang": "ko", "lname": "Yeongju-si", "zip": "36[01]"}, "KR/경상북도/영천시": {"id": "data/KR/경상북도/영천시", "key": "영천시", "lang": "ko", "lname": "Yeongcheon-si", "zip": "38[89]"}, "KR/경상북도/예천군": {"id": "data/KR/경상북도/예천군", "key": "예천군", "lang": "ko", "lname": "Yecheon-gun", "zip": "368"}, "KR/경상북도/울릉군": {"id": "data/KR/경상북도/울릉군", "key": "울릉군", "lang": "ko", "lname": "Ulleung-gun", "zip": "402"}, "KR/경상북도/울진군": {"id": "data/KR/경상북도/울진군", "key": "울진군", "lang": "ko", "lname": "Uljin-gun", "zip": "363"}, "KR/경상북도/의성군": {"id": "data/KR/경상북도/의성군", "key": "의성군", "lang": "ko", "lname": "Uiseong-gun", "zip": "373"}, "KR/경상북도/청도군": {"id": "data/KR/경상북도/청도군", "key": "청도군", "lang": "ko", "lname": "Cheongdo-gun", "zip": "383"}, "KR/경상북도/청송군": {"id": "data/KR/경상북도/청송군", "key": "청송군", "lang": "ko", "lname": "Cheongsong-gun", "zip": "374"}, "KR/경상북도/칠곡군": {"id": "data/KR/경상북도/칠곡군", "key": "칠곡군", "lang": "ko", "lname": "Chilgok-gun", "zip": "39[89]"}, "KR/경상북도/포항시": {"id": "data/KR/경상북도/포항시", "key": "포항시", "lang": "ko", "lname": "Pohang-si", "sub_keys": "남구~북구", "sub_lnames": "Nam-gu~Buk-gu", "sub_zips": "37[6-9]~37[5-79]", "zip": "37[5-9]"}, "KR/경상북도/포항시/남구": {"id": "data/KR/경상북도/포항시/남구", "key": "남구", "lang": "ko", "lname": "Nam-gu", "zip": "37[6-9]"}, "KR/경상북도/포항시/북구": {"id": "data/KR/경상북도/포항시/북구", "key": "북구", "lang": "ko", "lname": "Buk-gu", "zip": "37[5-79]"}, "KR/광주광역시": {"id": "data/KR/광주광역시", "isoid": "29", "key": "광주광역시", "lang": "ko", "lname": "Gwangju", "name": "광주", "sub_keys": "광산구~남구~동구~북구~서구", "sub_lnames": "Gwangsan-gu~Nam-gu~Dong-gu~Buk-gu~Seo-gu", "sub_zips": "62[2-4]~61[67]~61[45]~61[0-2]~6(?:19|20)", "zip": "6[12]\\d{2}", "zipex": "62394"}, "KR/광주광역시/광산구": {"id": "data/KR/광주광역시/광산구", "key": "광산구", "lang": "ko", "lname": "Gwangsan-gu", "zip": "62[2-4]"}, "KR/광주광역시/남구": {"id": "data/KR/광주광역시/남구", "key": "남구", "lang": "ko", "lname": "Nam-gu", "zip": "61[67]"}, "KR/광주광역시/동구": {"id": "data/KR/광주광역시/동구", "key": "동구", "lang": "ko", "lname": "Dong-gu", "zip": "61[45]"}, "KR/광주광역시/북구": {"id": "data/KR/광주광역시/북구", "key": "북구", "lang": "ko", "lname": "Buk-gu", "zip": "61[0-2]"}, "KR/광주광역시/서구": {"id": "data/KR/광주광역시/서구", "key": "서구", "lang": "ko", "lname": "Seo-gu", "zip": "6(?:19|20)"}, "KR/대구광역시": {"id": "data/KR/대구광역시", "isoid": "27", "key": "대구광역시", "lang": "ko", "lname": "Daegu", "name": "대구", "sub_keys": "남구~달서구~달성군~동구~북구~서구~수성구~중구", "sub_lnames": "Nam-gu~Dalseo-gu~Dalseong-gun~Dong-gu~Buk-gu~Seo-gu~Suseong-gu~Jung-gu", "sub_zips": "42[45]~42[678]~4(?:29|30)~41[0-2]~41[45]~41[78]~42[0-2]~419", "zip": "4[123]\\d{2}", "zipex": "42456"}, "KR/대구광역시/남구": {"id": "data/KR/대구광역시/남구", "key": "남구", "lang": "ko", "lname": "Nam-gu", "zip": "42[45]"}, "KR/대구광역시/달서구": {"id": "data/KR/대구광역시/달서구", "key": "달서구", "lang": "ko", "lname": "Dalseo-gu", "zip": "42[678]"}, "KR/대구광역시/달성군": {"id": "data/KR/대구광역시/달성군", "key": "달성군", "lang": "ko", "lname": "Dalseong-gun", "zip": "4(?:29|30)"}, "KR/대구광역시/동구": {"id": "data/KR/대구광역시/동구", "key": "동구", "lang": "ko", "lname": "Dong-gu", "zip": "41[0-2]"}, "KR/대구광역시/북구": {"id": "data/KR/대구광역시/북구", "key": "북구", "lang": "ko", "lname": "Buk-gu", "zip": "41[45]"}, "KR/대구광역시/서구": {"id": "data/KR/대구광역시/서구", "key": "서구", "lang": "ko", "lname": "Seo-gu", "zip": "41[78]"}, "KR/대구광역시/수성구": {"id": "data/KR/대구광역시/수성구", "key": "수성구", "lang": "ko", "lname": "Suseong-gu", "zip": "42[0-2]"}, "KR/대구광역시/중구": {"id": "data/KR/대구광역시/중구", "key": "중구", "lang": "ko", "lname": "Jung-gu", "zip": "419"}, "KR/대전광역시": {"id": "data/KR/대전광역시", "isoid": "30", "key": "대전광역시", "lang": "ko", "lname": "Daejeon", "name": "대전", "sub_keys": "대덕구~동구~서구~유성구~중구", "sub_lnames": "Daedeok-gu~Dong-gu~Seo-gu~Yuseong-gu~Jung-gu", "sub_zips": "34[34]~34[5-7]~35[2-4]~34[0-2]~3(?:4[89]|50)", "zip": "3[45]\\d{2}", "zipex": "34316"}, "KR/대전광역시/대덕구": {"id": "data/KR/대전광역시/대덕구", "key": "대덕구", "lang": "ko", "lname": "Daedeok-gu", "zip": "34[34]"}, "KR/대전광역시/동구": {"id": "data/KR/대전광역시/동구", "key": "동구", "lang": "ko", "lname": "Dong-gu", "zip": "34[5-7]"}, "KR/대전광역시/서구": {"id": "data/KR/대전광역시/서구", "key": "서구", "lang": "ko", "lname": "Seo-gu", "zip": "35[2-4]"}, "KR/대전광역시/유성구": {"id": "data/KR/대전광역시/유성구", "key": "유성구", "lang": "ko", "lname": "Yuseong-gu", "zip": "34[0-2]"}, "KR/대전광역시/중구": {"id": "data/KR/대전광역시/중구", "key": "중구", "lang": "ko", "lname": "Jung-gu", "zip": "3(?:4[89]|50)"}, "KR/부산광역시": {"id": "data/KR/부산광역시", "isoid": "26", "key": "부산광역시", "lang": "ko", "lname": "Busan", "name": "부산", "sub_keys": "강서구~금정구~기장군~남구~동구~동래구~부산진구~북구~사상구~사하구~서구~수영구~연제구~영도구~중구~해운대구", "sub_lnames": "Gangseo-gu~Geumjeong-gu~Gijang-gun~Nam-gu~Dong-gu~Dongnae-gu~Busanjin-gu~Buk-gu~Sasang-gu~Saha-gu~Seo-gu~Suyeong-gu~Yeonje-gu~Yeongdo-gu~Jung-gu~Haeundae-gu", "sub_zips": "467~46[23]~460~48[45]~48[78]~47[789]~47[123]~46[56]~4(?:69|70)~49[345]~492~48[23]~47[56]~49[01]~489~48[01]", "zip": "4[6-9]\\d{2}", "zipex": "46706"}, "KR/부산광역시/강서구": {"id": "data/KR/부산광역시/강서구", "key": "강서구", "lang": "ko", "lname": "Gangseo-gu", "zip": "467"}, "KR/부산광역시/금정구": {"id": "data/KR/부산광역시/금정구", "key": "금정구", "lang": "ko", "lname": "Geumjeong-gu", "zip": "46[23]"}, "KR/부산광역시/기장군": {"id": "data/KR/부산광역시/기장군", "key": "기장군", "lang": "ko", "lname": "Gijang-gun", "zip": "460"}, "KR/부산광역시/남구": {"id": "data/KR/부산광역시/남구", "key": "남구", "lang": "ko", "lname": "Nam-gu", "zip": "48[45]"}, "KR/부산광역시/동구": {"id": "data/KR/부산광역시/동구", "key": "동구", "lang": "ko", "lname": "Dong-gu", "zip": "48[78]"}, "KR/부산광역시/동래구": {"id": "data/KR/부산광역시/동래구", "key": "동래구", "lang": "ko", "lname": "Dongnae-gu", "zip": "47[789]"}, "KR/부산광역시/부산진구": {"id": "data/KR/부산광역시/부산진구", "key": "부산진구", "lang": "ko", "lname": "Busanjin-gu", "zip": "47[123]"}, "KR/부산광역시/북구": {"id": "data/KR/부산광역시/북구", "key": "북구", "lang": "ko", "lname": "Buk-gu", "zip": "46[56]"}, "KR/부산광역시/사상구": {"id": "data/KR/부산광역시/사상구", "key": "사상구", "lang": "ko", "lname": "Sasang-gu", "zip": "4(?:69|70)"}, "KR/부산광역시/사하구": {"id": "data/KR/부산광역시/사하구", "key": "사하구", "lang": "ko", "lname": "Saha-gu", "zip": "49[345]"}, "KR/부산광역시/서구": {"id": "data/KR/부산광역시/서구", "key": "서구", "lang": "ko", "lname": "Seo-gu", "zip": "492"}, "KR/부산광역시/수영구": {"id": "data/KR/부산광역시/수영구", "key": "수영구", "lang": "ko", "lname": "Suyeong-gu", "zip": "48[23]"}, "KR/부산광역시/연제구": {"id": "data/KR/부산광역시/연제구", "key": "연제구", "lang": "ko", "lname": "Yeonje-gu", "zip": "47[56]"}, "KR/부산광역시/영도구": {"id": "data/KR/부산광역시/영도구", "key": "영도구", "lang": "ko", "lname": "Yeongdo-gu", "zip": "49[01]"}, "KR/부산광역시/중구": {"id": "data/KR/부산광역시/중구", "key": "중구", "lang": "ko", "lname": "Jung-gu", "zip": "489"}, "KR/부산광역시/해운대구": {"id": "data/KR/부산광역시/해운대구", "key": "해운대구", "lang": "ko", "lname": "Haeundae-gu", "zip": "48[01]"}, "KR/서울특별시": {"id": "data/KR/서울특별시", "isoid": "11", "key": "서울특별시", "lang": "ko", "lname": "Seoul", "name": "서울", "sub_keys": "강남구~강동구~강북구~강서구~관악구~광진구~구로구~금천구~노원구~도봉구~동대문구~동작구~마포구~서대문구~서초구~성동구~성북구~송파구~양천구~영등포구~용산구~은평구~종로구~중구~중랑구", "sub_lnames": "Gangnam-gu~Gangdong-gu~Gangbuk-gu~Gangseo-gu~Gwanak-gu~Gwangjin-gu~Guro-gu~Geumcheon-gu~Nowon-gu~Dobong-gu~Dongdaemun-gu~Dongjak-gu~Mapo-gu~Seodaemun-gu~Seocho-gu~Seongdong-gu~Seongbuk-gu~Songpa-gu~Yangcheon-gu~Yeongdeungpo-gu~Yongsan-gu~Eunpyeong-gu~Jongno-gu~Jung-gu~Jungnang-gu", "sub_zips": "06[0-3]~05[2-4]~01[0-2]~07[5-8]~08[78]~0(?:49|5[01])~08[23]~08[56]~01[6-9]~01[34]~02[4-6]~0(?:69|70)~0(?:39|4[0-2])~03[67]~06[5-8]~04[78]~02[78]~05[5-8]~0(?:7[89]|8[01])~07[2-4]~04[34]~03[3-5]~03[01]~04[56]|100~02[0-2]", "zip": "0[1-8]\\d{2}", "zipex": "06321"}, "KR/서울특별시/강남구": {"id": "data/KR/서울특별시/강남구", "key": "강남구", "lang": "ko", "lname": "Gangnam-gu", "zip": "06[0-3]"}, "KR/서울특별시/강동구": {"id": "data/KR/서울특별시/강동구", "key": "강동구", "lang": "ko", "lname": "Gangdong-gu", "zip": "05[2-4]"}, "KR/서울특별시/강북구": {"id": "data/KR/서울특별시/강북구", "key": "강북구", "lang": "ko", "lname": "Gangbuk-gu", "zip": "01[0-2]"}, "KR/서울특별시/강서구": {"id": "data/KR/서울특별시/강서구", "key": "강서구", "lang": "ko", "lname": "Gangseo-gu", "zip": "07[5-8]"}, "KR/서울특별시/관악구": {"id": "data/KR/서울특별시/관악구", "key": "관악구", "lang": "ko", "lname": "Gwanak-gu", "zip": "08[78]"}, "KR/서울특별시/광진구": {"id": "data/KR/서울특별시/광진구", "key": "광진구", "lang": "ko", "lname": "Gwangjin-gu", "zip": "0(?:49|5[01])"}, "KR/서울특별시/구로구": {"id": "data/KR/서울특별시/구로구", "key": "구로구", "lang": "ko", "lname": "Guro-gu", "zip": "08[23]"}, "KR/서울특별시/금천구": {"id": "data/KR/서울특별시/금천구", "key": "금천구", "lang": "ko", "lname": "Geumcheon-gu", "zip": "08[56]"}, "KR/서울특별시/노원구": {"id": "data/KR/서울특별시/노원구", "key": "노원구", "lang": "ko", "lname": "Nowon-gu", "zip": "01[6-9]"}, "KR/서울특별시/도봉구": {"id": "data/KR/서울특별시/도봉구", "key": "도봉구", "lang": "ko", "lname": "Dobong-gu", "zip": "01[34]"}, "KR/서울특별시/동대문구": {"id": "data/KR/서울특별시/동대문구", "key": "동대문구", "lang": "ko", "lname": "Dongdaemun-gu", "zip": "02[4-6]"}, "KR/서울특별시/동작구": {"id": "data/KR/서울특별시/동작구", "key": "동작구", "lang": "ko", "lname": "Dongjak-gu", "zip": "0(?:69|70)"}, "KR/서울특별시/마포구": {"id": "data/KR/서울특별시/마포구", "key": "마포구", "lang": "ko", "lname": "Mapo-gu", "zip": "0(?:39|4[0-2])"}, "KR/서울특별시/서대문구": {"id": "data/KR/서울특별시/서대문구", "key": "서대문구", "lang": "ko", "lname": "Seodaemun-gu", "zip": "03[67]"}, "KR/서울특별시/서초구": {"id": "data/KR/서울특별시/서초구", "key": "서초구", "lang": "ko", "lname": "Seocho-gu", "zip": "06[5-8]"}, "KR/서울특별시/성동구": {"id": "data/KR/서울특별시/성동구", "key": "성동구", "lang": "ko", "lname": "Seongdong-gu", "zip": "04[78]"}, "KR/서울특별시/성북구": {"id": "data/KR/서울특별시/성북구", "key": "성북구", "lang": "ko", "lname": "Seongbuk-gu", "zip": "02[78]"}, "KR/서울특별시/송파구": {"id": "data/KR/서울특별시/송파구", "key": "송파구", "lang": "ko", "lname": "Songpa-gu", "zip": "05[5-8]"}, "KR/서울특별시/양천구": {"id": "data/KR/서울특별시/양천구", "key": "양천구", "lang": "ko", "lname": "Yangcheon-gu", "zip": "0(?:7[89]|8[01])"}, "KR/서울특별시/영등포구": {"id": "data/KR/서울특별시/영등포구", "key": "영등포구", "lang": "ko", "lname": "Yeongdeungpo-gu", "zip": "07[2-4]"}, "KR/서울특별시/용산구": {"id": "data/KR/서울특별시/용산구", "key": "용산구", "lang": "ko", "lname": "Yongsan-gu", "zip": "04[34]"}, "KR/서울특별시/은평구": {"id": "data/KR/서울특별시/은평구", "key": "은평구", "lang": "ko", "lname": "Eunpyeong-gu", "zip": "03[3-5]"}, "KR/서울특별시/종로구": {"id": "data/KR/서울특별시/종로구", "key": "종로구", "lang": "ko", "lname": "Jongno-gu", "zip": "03[01]"}, "KR/서울특별시/중구": {"id": "data/KR/서울특별시/중구", "key": "중구", "lang": "ko", "lname": "Jung-gu", "zip": "04[56]|100"}, "KR/서울특별시/중랑구": {"id": "data/KR/서울특별시/중랑구", "key": "중랑구", "lang": "ko", "lname": "Jungnang-gu", "zip": "02[0-2]"}, "KR/세종특별자치시": {"id": "data/KR/세종특별자치시", "isoid": "50", "key": "세종특별자치시", "lang": "ko", "lname": "Sejong", "name": "세종", "sub_keys": "고운동~금남면~다정동~대평동~도담동~보람동~부강면~새롬동~소담동~소정면~아름동~연기면~연동면~연서면~장군면~전동면~전의면~조치원읍~종촌동~한솔동", "sub_lnames": "Goun-dong~Geumnam-myeon~Dajeong-dong~Daepyeong-dong~Dodam-dong~Boram-dong~Bugang-myeon~Saerom-dong~Sodam-dong~Sojeong-myeon~Areum-dong~Yeongi-myeon~Yeondong-myeon~Yeonseo-myeon~Janggun-myeon~Jeondong-myeon~Jeonui-myeon~Jochiwon-eup~Jongchon-dong~Hansol-dong", "zip": "30[01]\\d", "zipex": "30065"}, "KR/세종특별자치시/고운동": {"id": "data/KR/세종특별자치시/고운동", "key": "고운동", "lang": "ko", "lname": "Goun-dong"}, "KR/세종특별자치시/금남면": {"id": "data/KR/세종특별자치시/금남면", "key": "금남면", "lang": "ko", "lname": "Geumnam-myeon"}, "KR/세종특별자치시/다정동": {"id": "data/KR/세종특별자치시/다정동", "key": "다정동", "lang": "ko", "lname": "Dajeong-dong"}, "KR/세종특별자치시/대평동": {"id": "data/KR/세종특별자치시/대평동", "key": "대평동", "lang": "ko", "lname": "Daepyeong-dong"}, "KR/세종특별자치시/도담동": {"id": "data/KR/세종특별자치시/도담동", "key": "도담동", "lang": "ko", "lname": "Dodam-dong"}, "KR/세종특별자치시/보람동": {"id": "data/KR/세종특별자치시/보람동", "key": "보람동", "lang": "ko", "lname": "Boram-dong"}, "KR/세종특별자치시/부강면": {"id": "data/KR/세종특별자치시/부강면", "key": "부강면", "lang": "ko", "lname": "Bugang-myeon"}, "KR/세종특별자치시/새롬동": {"id": "data/KR/세종특별자치시/새롬동", "key": "새롬동", "lang": "ko", "lname": "Saerom-dong"}, "KR/세종특별자치시/소담동": {"id": "data/KR/세종특별자치시/소담동", "key": "소담동", "lang": "ko", "lname": "Sodam-dong"}, "KR/세종특별자치시/소정면": {"id": "data/KR/세종특별자치시/소정면", "key": "소정면", "lang": "ko", "lname": "Sojeong-myeon"}, "KR/세종특별자치시/아름동": {"id": "data/KR/세종특별자치시/아름동", "key": "아름동", "lang": "ko", "lname": "Areum-dong"}, "KR/세종특별자치시/연기면": {"id": "data/KR/세종특별자치시/연기면", "key": "연기면", "lang": "ko", "lname": "Yeongi-myeon"}, "KR/세종특별자치시/연동면": {"id": "data/KR/세종특별자치시/연동면", "key": "연동면", "lang": "ko", "lname": "Yeondong-myeon"}, "KR/세종특별자치시/연서면": {"id": "data/KR/세종특별자치시/연서면", "key": "연서면", "lang": "ko", "lname": "Yeonseo-myeon"}, "KR/세종특별자치시/장군면": {"id": "data/KR/세종특별자치시/장군면", "key": "장군면", "lang": "ko", "lname": "Janggun-myeon"}, "KR/세종특별자치시/전동면": {"id": "data/KR/세종특별자치시/전동면", "key": "전동면", "lang": "ko", "lname": "Jeondong-myeon"}, "KR/세종특별자치시/전의면": {"id": "data/KR/세종특별자치시/전의면", "key": "전의면", "lang": "ko", "lname": "Jeonui-myeon"}, "KR/세종특별자치시/조치원읍": {"id": "data/KR/세종특별자치시/조치원읍", "key": "조치원읍", "lang": "ko", "lname": "Jochiwon-eup"}, "KR/세종특별자치시/종촌동": {"id": "data/KR/세종특별자치시/종촌동", "key": "종촌동", "lang": "ko", "lname": "Jongchon-dong"}, "KR/세종특별자치시/한솔동": {"id": "data/KR/세종특별자치시/한솔동", "key": "한솔동", "lang": "ko", "lname": "Hansol-dong"}, "KR/울산광역시": {"id": "data/KR/울산광역시", "isoid": "31", "key": "울산광역시", "lang": "ko", "lname": "Ulsan", "name": "울산", "sub_keys": "남구~동구~북구~울주군~중구", "sub_lnames": "Nam-gu~Dong-gu~Buk-gu~Ulju-gun~Jung-gu", "sub_zips": "44[67]~44[01]~442~4(?:49|50)~44[45]", "zip": "4[45]\\d{2}", "zipex": "44782"}, "KR/울산광역시/남구": {"id": "data/KR/울산광역시/남구", "key": "남구", "lang": "ko", "lname": "Nam-gu", "zip": "44[67]"}, "KR/울산광역시/동구": {"id": "data/KR/울산광역시/동구", "key": "동구", "lang": "ko", "lname": "Dong-gu", "zip": "44[01]"}, "KR/울산광역시/북구": {"id": "data/KR/울산광역시/북구", "key": "북구", "lang": "ko", "lname": "Buk-gu", "zip": "442"}, "KR/울산광역시/울주군": {"id": "data/KR/울산광역시/울주군", "key": "울주군", "lang": "ko", "lname": "Ulju-gun", "zip": "4(?:49|50)"}, "KR/울산광역시/중구": {"id": "data/KR/울산광역시/중구", "key": "중구", "lang": "ko", "lname": "Jung-gu", "zip": "44[45]"}, "KR/인천광역시": {"id": "data/KR/인천광역시", "isoid": "28", "key": "인천광역시", "lang": "ko", "lname": "Incheon", "name": "인천", "sub_keys": "강화군~계양구~남구~남동구~동구~부평구~서구~연수구~옹진군~중구", "sub_lnames": "Ganghwa-gun~Gyeyang-gu~Nam-gu~Namdong-gu~Dong-gu~Bupyeong-gu~Seo-gu~Yeonsu-gu~Ongjin-gun~Jung-gu", "sub_zips": "230~21[01]~22[12]~21[5-7]~225~21[34]~22[6-8]~2(?:19|20)~231~22[34]", "zip": "2[1-3]\\d{2}", "zipex": "23024"}, "KR/인천광역시/강화군": {"id": "data/KR/인천광역시/강화군", "key": "강화군", "lang": "ko", "lname": "Ganghwa-gun", "zip": "230"}, "KR/인천광역시/계양구": {"id": "data/KR/인천광역시/계양구", "key": "계양구", "lang": "ko", "lname": "Gyeyang-gu", "zip": "21[01]"}, "KR/인천광역시/남구": {"id": "data/KR/인천광역시/남구", "key": "남구", "lang": "ko", "lname": "Nam-gu", "zip": "22[12]"}, "KR/인천광역시/남동구": {"id": "data/KR/인천광역시/남동구", "key": "남동구", "lang": "ko", "lname": "Namdong-gu", "zip": "21[5-7]"}, "KR/인천광역시/동구": {"id": "data/KR/인천광역시/동구", "key": "동구", "lang": "ko", "lname": "Dong-gu", "zip": "225"}, "KR/인천광역시/부평구": {"id": "data/KR/인천광역시/부평구", "key": "부평구", "lang": "ko", "lname": "Bupyeong-gu", "zip": "21[34]"}, "KR/인천광역시/서구": {"id": "data/KR/인천광역시/서구", "key": "서구", "lang": "ko", "lname": "Seo-gu", "zip": "22[6-8]"}, "KR/인천광역시/연수구": {"id": "data/KR/인천광역시/연수구", "key": "연수구", "lang": "ko", "lname": "Yeonsu-gu", "zip": "2(?:19|20)"}, "KR/인천광역시/옹진군": {"id": "data/KR/인천광역시/옹진군", "key": "옹진군", "lang": "ko", "lname": "Ongjin-gun", "zip": "231"}, "KR/인천광역시/중구": {"id": "data/KR/인천광역시/중구", "key": "중구", "lang": "ko", "lname": "Jung-gu", "zip": "22[34]"}, "KR/전라남도": {"id": "data/KR/전라남도", "isoid": "46", "key": "전라남도", "lang": "ko", "lname": "Jeollanam-do", "name": "전남", "sub_keys": "강진군~고흥군~곡성군~광양시~구례군~나주시~담양군~목포시~무안군~보성군~순천시~신안군~여수시~영광군~영암군~완도군~장성군~장흥군~진도군~함평군~해남군~화순군", "sub_lnames": "Gangjin-gun~Goheung-gun~Gokseong-gun~Gwangyang-si~Gurye-gun~Naju-si~Damyang-gun~Mokpo-si~Muan-gun~Boseong-gun~Suncheon-si~Sinan-gun~Yeosu-si~Yeonggwang-gun~Yeongam-gun~Wando-gun~Jangseong-gun~Jangheung-gun~Jindo-gun~Hampyeong-gun~Haenam-gun~Hwasun-gun", "sub_zips": "592~595~575~57[78]~576~58[23]~573~58[67]~585~594~5(?:79|80)~588~59[67]~570~584~591~572~593~589~571~590~581", "zip": "5[7-9]\\d{2}", "zipex": "59222"}, "KR/전라남도/강진군": {"id": "data/KR/전라남도/강진군", "key": "강진군", "lang": "ko", "lname": "Gangjin-gun", "zip": "592"}, "KR/전라남도/고흥군": {"id": "data/KR/전라남도/고흥군", "key": "고흥군", "lang": "ko", "lname": "Goheung-gun", "zip": "595"}, "KR/전라남도/곡성군": {"id": "data/KR/전라남도/곡성군", "key": "곡성군", "lang": "ko", "lname": "Gokseong-gun", "zip": "575"}, "KR/전라남도/광양시": {"id": "data/KR/전라남도/광양시", "key": "광양시", "lang": "ko", "lname": "Gwangyang-si", "zip": "57[78]"}, "KR/전라남도/구례군": {"id": "data/KR/전라남도/구례군", "key": "구례군", "lang": "ko", "lname": "Gurye-gun", "zip": "576"}, "KR/전라남도/나주시": {"id": "data/KR/전라남도/나주시", "key": "나주시", "lang": "ko", "lname": "Naju-si", "zip": "58[23]"}, "KR/전라남도/담양군": {"id": "data/KR/전라남도/담양군", "key": "담양군", "lang": "ko", "lname": "Damyang-gun", "zip": "573"}, "KR/전라남도/목포시": {"id": "data/KR/전라남도/목포시", "key": "목포시", "lang": "ko", "lname": "Mokpo-si", "zip": "58[67]"}, "KR/전라남도/무안군": {"id": "data/KR/전라남도/무안군", "key": "무안군", "lang": "ko", "lname": "Muan-gun", "zip": "585"}, "KR/전라남도/보성군": {"id": "data/KR/전라남도/보성군", "key": "보성군", "lang": "ko", "lname": "Boseong-gun", "zip": "594"}, "KR/전라남도/순천시": {"id": "data/KR/전라남도/순천시", "key": "순천시", "lang": "ko", "lname": "Suncheon-si", "zip": "5(?:79|80)"}, "KR/전라남도/신안군": {"id": "data/KR/전라남도/신안군", "key": "신안군", "lang": "ko", "lname": "Sinan-gun", "zip": "588"}, "KR/전라남도/여수시": {"id": "data/KR/전라남도/여수시", "key": "여수시", "lang": "ko", "lname": "Yeosu-si", "zip": "59[67]"}, "KR/전라남도/영광군": {"id": "data/KR/전라남도/영광군", "key": "영광군", "lang": "ko", "lname": "Yeonggwang-gun", "zip": "570"}, "KR/전라남도/영암군": {"id": "data/KR/전라남도/영암군", "key": "영암군", "lang": "ko", "lname": "Yeongam-gun", "zip": "584"}, "KR/전라남도/완도군": {"id": "data/KR/전라남도/완도군", "key": "완도군", "lang": "ko", "lname": "Wando-gun", "zip": "591"}, "KR/전라남도/장성군": {"id": "data/KR/전라남도/장성군", "key": "장성군", "lang": "ko", "lname": "Jangseong-gun", "zip": "572"}, "KR/전라남도/장흥군": {"id": "data/KR/전라남도/장흥군", "key": "장흥군", "lang": "ko", "lname": "Jangheung-gun", "zip": "593"}, "KR/전라남도/진도군": {"id": "data/KR/전라남도/진도군", "key": "진도군", "lang": "ko", "lname": "Jindo-gun", "zip": "589"}, "KR/전라남도/함평군": {"id": "data/KR/전라남도/함평군", "key": "함평군", "lang": "ko", "lname": "Hampyeong-gun", "zip": "571"}, "KR/전라남도/해남군": {"id": "data/KR/전라남도/해남군", "key": "해남군", "lang": "ko", "lname": "Haenam-gun", "zip": "590"}, "KR/전라남도/화순군": {"id": "data/KR/전라남도/화순군", "key": "화순군", "lang": "ko", "lname": "Hwasun-gun", "zip": "581"}, "KR/전라북도": {"id": "data/KR/전라북도", "isoid": "45", "key": "전라북도", "lang": "ko", "lname": "Jeollabuk-do", "name": "전북", "sub_keys": "고창군~군산시~김제시~남원시~무주군~부안군~순창군~완주군~익산시~임실군~장수군~전주시~정읍시~진안군", "sub_lnames": "Gochang-gun~Gunsan-si~Gimje-si~Namwon-si~Muju-gun~Buan-gun~Sunchang-gun~Wanju-gun~Iksan-si~Imsil-gun~Jangsu-gun~Jeonju-si~Jeongeup-si~Jinan-gun", "sub_mores": "false~false~false~false~false~false~false~false~false~false~false~true~false~false", "sub_zips": "564~54[01]~54[34]~55[78]~555~563~560~553~54[56]~559~556~5(?:4[89]|5[01])~56[12]~554", "zip": "5[4-6]\\d{2}", "zipex": "56445"}, "KR/전라북도/고창군": {"id": "data/KR/전라북도/고창군", "key": "고창군", "lang": "ko", "lname": "Gochang-gun", "zip": "564"}, "KR/전라북도/군산시": {"id": "data/KR/전라북도/군산시", "key": "군산시", "lang": "ko", "lname": "Gunsan-si", "zip": "54[01]"}, "KR/전라북도/김제시": {"id": "data/KR/전라북도/김제시", "key": "김제시", "lang": "ko", "lname": "Gimje-si", "zip": "54[34]"}, "KR/전라북도/남원시": {"id": "data/KR/전라북도/남원시", "key": "남원시", "lang": "ko", "lname": "Namwon-si", "zip": "55[78]"}, "KR/전라북도/무주군": {"id": "data/KR/전라북도/무주군", "key": "무주군", "lang": "ko", "lname": "Muju-gun", "zip": "555"}, "KR/전라북도/부안군": {"id": "data/KR/전라북도/부안군", "key": "부안군", "lang": "ko", "lname": "Buan-gun", "zip": "563"}, "KR/전라북도/순창군": {"id": "data/KR/전라북도/순창군", "key": "순창군", "lang": "ko", "lname": "Sunchang-gun", "zip": "560"}, "KR/전라북도/완주군": {"id": "data/KR/전라북도/완주군", "key": "완주군", "lang": "ko", "lname": "Wanju-gun", "zip": "553"}, "KR/전라북도/익산시": {"id": "data/KR/전라북도/익산시", "key": "익산시", "lang": "ko", "lname": "Iksan-si", "zip": "54[56]"}, "KR/전라북도/임실군": {"id": "data/KR/전라북도/임실군", "key": "임실군", "lang": "ko", "lname": "Imsil-gun", "zip": "559"}, "KR/전라북도/장수군": {"id": "data/KR/전라북도/장수군", "key": "장수군", "lang": "ko", "lname": "Jangsu-gun", "zip": "556"}, "KR/전라북도/전주시": {"id": "data/KR/전라북도/전주시", "key": "전주시", "lang": "ko", "lname": "Jeonju-si", "sub_keys": "덕진구~완산구", "sub_lnames": "Deokjin-gu~Wansan-gu", "sub_zips": "5(?:4[89]|50)~5(?:4[89]|5[01])", "zip": "5(?:4[89]|5[01])"}, "KR/전라북도/전주시/덕진구": {"id": "data/KR/전라북도/전주시/덕진구", "key": "덕진구", "lang": "ko", "lname": "Deokjin-gu", "zip": "5(?:4[89]|50)"}, "KR/전라북도/전주시/완산구": {"id": "data/KR/전라북도/전주시/완산구", "key": "완산구", "lang": "ko", "lname": "Wansan-gu", "zip": "5(?:4[89]|5[01])"}, "KR/전라북도/정읍시": {"id": "data/KR/전라북도/정읍시", "key": "정읍시", "lang": "ko", "lname": "Jeongeup-si", "zip": "56[12]"}, "KR/전라북도/진안군": {"id": "data/KR/전라북도/진안군", "key": "진안군", "lang": "ko", "lname": "Jinan-gun", "zip": "554"}, "KR/제주특별자치도": {"id": "data/KR/제주특별자치도", "isoid": "49", "key": "제주특별자치도", "lang": "ko", "lname": "Jeju-do", "name": "제주", "sub_keys": "서귀포시~제주시", "sub_lnames": "Seogwipo-si~Jeju-si", "sub_zips": "63[56]~63[0-3]", "zip": "63[0-356]\\d", "zipex": "63563"}, "KR/제주특별자치도/서귀포시": {"id": "data/KR/제주특별자치도/서귀포시", "key": "서귀포시", "lang": "ko", "lname": "Seogwipo-si", "zip": "63[56]"}, "KR/제주특별자치도/제주시": {"id": "data/KR/제주특별자치도/제주시", "key": "제주시", "lang": "ko", "lname": "Jeju-si", "zip": "63[0-3]"}, "KR/충청남도": {"id": "data/KR/충청남도", "isoid": "44", "key": "충청남도", "lang": "ko", "lname": "Chungcheongnam-do", "name": "충남", "sub_keys": "계룡시~공주시~금산군~논산시~당진시~보령시~부여군~서산시~서천군~아산시~예산군~천안시~청양군~태안군~홍성군", "sub_lnames": "Gyeryong-si~Gongju-si~Geumsan-gun~Nonsan-si~Dangjin-si~Boryeong-si~Buyeo-gun~Seosan-si~Seocheon-gun~Asan-si~Yesan-gun~Cheonan-si~Cheongyang-gun~Taean-gun~Hongseong-gun", "sub_mores": "false~false~false~false~false~false~false~false~false~false~false~true~false~false~false", "sub_zips": "328~32[56]~327~3(?:29|30)~31[78]~33[45]~33[12]~3(?:19|20)~336~31[45]~324~31[0-2]~333~321~322", "zip": "3[1-3]\\d{2}", "zipex": "32832"}, "KR/충청남도/계룡시": {"id": "data/KR/충청남도/계룡시", "key": "계룡시", "lang": "ko", "lname": "Gyeryong-si", "zip": "328"}, "KR/충청남도/공주시": {"id": "data/KR/충청남도/공주시", "key": "공주시", "lang": "ko", "lname": "Gongju-si", "zip": "32[56]"}, "KR/충청남도/금산군": {"id": "data/KR/충청남도/금산군", "key": "금산군", "lang": "ko", "lname": "Geumsan-gun", "zip": "327"}, "KR/충청남도/논산시": {"id": "data/KR/충청남도/논산시", "key": "논산시", "lang": "ko", "lname": "Nonsan-si", "zip": "3(?:29|30)"}, "KR/충청남도/당진시": {"id": "data/KR/충청남도/당진시", "key": "당진시", "lang": "ko", "lname": "Dangjin-si", "zip": "31[78]"}, "KR/충청남도/보령시": {"id": "data/KR/충청남도/보령시", "key": "보령시", "lang": "ko", "lname": "Boryeong-si", "zip": "33[45]"}, "KR/충청남도/부여군": {"id": "data/KR/충청남도/부여군", "key": "부여군", "lang": "ko", "lname": "Buyeo-gun", "zip": "33[12]"}, "KR/충청남도/서산시": {"id": "data/KR/충청남도/서산시", "key": "서산시", "lang": "ko", "lname": "Seosan-si", "zip": "3(?:19|20)"}, "KR/충청남도/서천군": {"id": "data/KR/충청남도/서천군", "key": "서천군", "lang": "ko", "lname": "Seocheon-gun", "zip": "336"}, "KR/충청남도/아산시": {"id": "data/KR/충청남도/아산시", "key": "아산시", "lang": "ko", "lname": "Asan-si", "zip": "31[45]"}, "KR/충청남도/예산군": {"id": "data/KR/충청남도/예산군", "key": "예산군", "lang": "ko", "lname": "Yesan-gun", "zip": "324"}, "KR/충청남도/천안시": {"id": "data/KR/충청남도/천안시", "key": "천안시", "lang": "ko", "lname": "Cheonan-si", "sub_keys": "동남구~서북구", "sub_lnames": "Dongnam-gu~Seobuk-gu", "sub_zips": "31[0-2]~31[01]", "zip": "31[0-2]"}, "KR/충청남도/천안시/동남구": {"id": "data/KR/충청남도/천안시/동남구", "key": "동남구", "lang": "ko", "lname": "Dongnam-gu", "zip": "31[0-2]"}, "KR/충청남도/천안시/서북구": {"id": "data/KR/충청남도/천안시/서북구", "key": "서북구", "lang": "ko", "lname": "Seobuk-gu", "zip": "31[01]"}, "KR/충청남도/청양군": {"id": "data/KR/충청남도/청양군", "key": "청양군", "lang": "ko", "lname": "Cheongyang-gun", "zip": "333"}, "KR/충청남도/태안군": {"id": "data/KR/충청남도/태안군", "key": "태안군", "lang": "ko", "lname": "Taean-gun", "zip": "321"}, "KR/충청남도/홍성군": {"id": "data/KR/충청남도/홍성군", "key": "홍성군", "lang": "ko", "lname": "Hongseong-gun", "zip": "322"}, "KR/충청북도": {"id": "data/KR/충청북도", "isoid": "43", "key": "충청북도", "lang": "ko", "lname": "Chungcheongbuk-do", "name": "충북", "sub_keys": "괴산군~단양군~보은군~영동군~옥천군~음성군~제천시~증평군~진천군~청주시~충주시", "sub_lnames": "Goesan-gun~Danyang-gun~Boeun-gun~Yeongdong-gun~Okcheon-gun~Eumseong-gun~Jecheon-si~Jeungpyeong-gun~Jincheon-gun~Cheongju-si~Chungju-si", "sub_mores": "false~false~false~false~false~false~false~false~false~true~false", "sub_zips": "280~270~289~291~290~27[67]~27[12]~279~278~28[0-9]~27[3-5]", "zip": "2[789]\\d{2}", "zipex": "28006"}, "KR/충청북도/괴산군": {"id": "data/KR/충청북도/괴산군", "key": "괴산군", "lang": "ko", "lname": "Goesan-gun", "zip": "280"}, "KR/충청북도/단양군": {"id": "data/KR/충청북도/단양군", "key": "단양군", "lang": "ko", "lname": "Danyang-gun", "zip": "270"}, "KR/충청북도/보은군": {"id": "data/KR/충청북도/보은군", "key": "보은군", "lang": "ko", "lname": "Boeun-gun", "zip": "289"}, "KR/충청북도/영동군": {"id": "data/KR/충청북도/영동군", "key": "영동군", "lang": "ko", "lname": "Yeongdong-gun", "zip": "291"}, "KR/충청북도/옥천군": {"id": "data/KR/충청북도/옥천군", "key": "옥천군", "lang": "ko", "lname": "Okcheon-gun", "zip": "290"}, "KR/충청북도/음성군": {"id": "data/KR/충청북도/음성군", "key": "음성군", "lang": "ko", "lname": "Eumseong-gun", "zip": "27[67]"}, "KR/충청북도/제천시": {"id": "data/KR/충청북도/제천시", "key": "제천시", "lang": "ko", "lname": "Jecheon-si", "zip": "27[12]"}, "KR/충청북도/증평군": {"id": "data/KR/충청북도/증평군", "key": "증평군", "lang": "ko", "lname": "Jeungpyeong-gun", "zip": "279"}, "KR/충청북도/진천군": {"id": "data/KR/충청북도/진천군", "key": "진천군", "lang": "ko", "lname": "Jincheon-gun", "zip": "278"}, "KR/충청북도/청주시": {"id": "data/KR/충청북도/청주시", "key": "청주시", "lang": "ko", "lname": "Cheongju-si", "sub_keys": "상당구~서원구~청원구~흥덕구", "sub_lnames": "Sangdang-gu~Seowon-gu~Cheongwon-gu~Heungdeok-gu", "sub_zips": "28[1-3578]~28[1-35-8]~28[13-5]~28[1-6]", "zip": "28[0-9]"}, "KR/충청북도/청주시/상당구": {"id": "data/KR/충청북도/청주시/상당구", "key": "상당구", "lang": "ko", "lname": "Sangdang-gu", "zip": "28[1-3578]"}, "KR/충청북도/청주시/서원구": {"id": "data/KR/충청북도/청주시/서원구", "key": "서원구", "lang": "ko", "lname": "Seowon-gu", "zip": "28[1-35-8]"}, "KR/충청북도/청주시/청원구": {"id": "data/KR/충청북도/청주시/청원구", "key": "청원구", "lang": "ko", "lname": "Cheongwon-gu", "zip": "28[13-5]"}, "KR/충청북도/청주시/흥덕구": {"id": "data/KR/충청북도/청주시/흥덕구", "key": "흥덕구", "lang": "ko", "lname": "Heungdeok-gu", "zip": "28[1-6]"}, "KR/충청북도/충주시": {"id": "data/KR/충청북도/충주시", "key": "충주시", "lang": "ko", "lname": "Chungju-si", "zip": "27[3-5]"}}