{"MY": {"fmt": "%N%n%O%n%A%n%D%n%Z %C%n%S", "id": "data/MY", "key": "MY", "lang": "ms", "languages": "ms", "name": "MALAYSIA", "posturl": "http://www.pos.com.my", "require": "ACZ", "state_name_type": "state", "sub_isoids": "01~02~03~14~15~04~05~06~08~09~07~16~12~13~10~11", "sub_keys": "Johor~Kedah~Kelantan~Kuala Lumpur~Labuan~Melaka~Negeri Sembilan~Pahang~Perak~Perlis~Pulau Pinang~Putrajaya~Sabah~Sarawak~Selangor~Terengganu", "sub_zipexs": "79000,86999~05000,09999,34950~15000,18599~50000,60000~87000,87999~75000,78399~70000,73599~25000,28999,39000,49000,69000~30000,36899,39000~01000,02799~10000,14999~62000,62999~88000,91999~93000,98999~40000,48999,63000,68199~20000,24999", "sub_zips": "79|8[0-6]~0[5-9]|34950~1[5-9]~5|60~87~7[5-8]~7[0-4]~2[5-8]|[346]9~3[0-6]|39000~0[12]~1[0-4]~62~8[89]|9[01]~9[3-8]~4[0-8]|6[3-8]~2[0-4]", "sublocality_name_type": "village_township", "upper": "CS", "zip": "\\d{5}", "zipex": "43000,50754,88990,50670"}, "MY/Johor": {"id": "data/MY/Johor", "isoid": "01", "key": "Johor", "lang": "ms", "zip": "79|8[0-6]", "zipex": "79000,86999"}, "MY/Kedah": {"id": "data/MY/Kedah", "isoid": "02", "key": "Kedah", "lang": "ms", "zip": "0[5-9]|34950", "zipex": "05000,09999,34950"}, "MY/Kelantan": {"id": "data/MY/Kelantan", "isoid": "03", "key": "Kelantan", "lang": "ms", "zip": "1[5-9]", "zipex": "15000,18599"}, "MY/Kuala Lumpur": {"id": "data/MY/Kuala Lumpur", "isoid": "14", "key": "Kuala Lumpur", "lang": "ms", "zip": "5|60", "zipex": "50000,60000"}, "MY/Labuan": {"id": "data/MY/Labuan", "isoid": "15", "key": "Labuan", "lang": "ms", "zip": "87", "zipex": "87000,87999"}, "MY/Melaka": {"id": "data/MY/Melaka", "isoid": "04", "key": "Melaka", "lang": "ms", "zip": "7[5-8]", "zipex": "75000,78399"}, "MY/Negeri Sembilan": {"id": "data/MY/Negeri Sembilan", "isoid": "05", "key": "Negeri Sembilan", "lang": "ms", "zip": "7[0-4]", "zipex": "70000,73599"}, "MY/Pahang": {"id": "data/MY/Pahang", "isoid": "06", "key": "Pahang", "lang": "ms", "zip": "2[5-8]|[346]9", "zipex": "25000,28999,39000,49000,69000"}, "MY/Perak": {"id": "data/MY/Perak", "isoid": "08", "key": "Perak", "lang": "ms", "zip": "3[0-6]|39000", "zipex": "30000,36899,39000"}, "MY/Perlis": {"id": "data/MY/Perlis", "isoid": "09", "key": "Perlis", "lang": "ms", "zip": "0[12]", "zipex": "01000,02799"}, "MY/Pulau Pinang": {"id": "data/MY/Pulau Pinang", "isoid": "07", "key": "Pulau Pinang", "lang": "ms", "zip": "1[0-4]", "zipex": "10000,14999"}, "MY/Putrajaya": {"id": "data/MY/Putrajaya", "isoid": "16", "key": "Putrajaya", "lang": "ms", "zip": "62", "zipex": "62000,62999"}, "MY/Sabah": {"id": "data/MY/Sabah", "isoid": "12", "key": "Sabah", "lang": "ms", "zip": "8[89]|9[01]", "zipex": "88000,91999"}, "MY/Sarawak": {"id": "data/MY/Sarawak", "isoid": "13", "key": "Sarawak", "lang": "ms", "zip": "9[3-8]", "zipex": "93000,98999"}, "MY/Selangor": {"id": "data/MY/Selangor", "isoid": "10", "key": "Selangor", "lang": "ms", "zip": "4[0-8]|6[3-8]", "zipex": "40000,48999,63000,68199"}, "MY/Terengganu": {"id": "data/MY/Terengganu", "isoid": "11", "key": "Terengganu", "lang": "ms", "zip": "2[0-4]", "zipex": "20000,24999"}}