{"NI": {"fmt": "%N%n%O%n%A%n%Z%n%C, %S", "id": "data/NI", "key": "NI", "lang": "es", "languages": "es", "name": "NICARAGUA", "posturl": "http://www.correos.gob.ni/codigo-postal/", "state_name_type": "department", "sub_isoids": "BO~CA~CI~CO~ES~GR~JI~LE~MD~MN~MS~MT~NS~AN~AS~SJ~RI", "sub_keys": "Boaco~Carazo~Chinandega~Chontales~Estelí~Granada~Jinotega~León~Madriz~Managua~Masaya~Matagalpa~Nueva Segovia~Región Autónoma de la Costa Caribe Norte~Región Autónoma de la Costa Caribe Sur~Río San Juan~Rivas", "sub_zips": "5[12]~4[56]~2[5-7]~5[56]~3[12]~4[34]~6[56]~2[12]~3[45]~1[0-6]~4[12]~6[1-3]~3[7-9]~7[12]~8[1-3]~9[12]~4[78]", "upper": "CS", "zip": "\\d{5}", "zipex": "52000"}, "NI/Boaco": {"id": "data/NI/Boaco", "isoid": "BO", "key": "Boaco", "lang": "es", "zip": "5[12]"}, "NI/Carazo": {"id": "data/NI/Carazo", "isoid": "CA", "key": "Carazo", "lang": "es", "zip": "4[56]"}, "NI/Chinandega": {"id": "data/NI/Chinandega", "isoid": "CI", "key": "Chinandega", "lang": "es", "zip": "2[5-7]"}, "NI/Chontales": {"id": "data/NI/Chontales", "isoid": "CO", "key": "Chontales", "lang": "es", "zip": "5[56]"}, "NI/Estelí": {"id": "data/NI/Estelí", "isoid": "ES", "key": "Estelí", "lang": "es", "zip": "3[12]"}, "NI/Granada": {"id": "data/NI/Granada", "isoid": "GR", "key": "Granada", "lang": "es", "zip": "4[34]"}, "NI/Jinotega": {"id": "data/NI/Jinotega", "isoid": "JI", "key": "Jinotega", "lang": "es", "zip": "6[56]"}, "NI/León": {"id": "data/NI/León", "isoid": "LE", "key": "León", "lang": "es", "zip": "2[12]"}, "NI/Madriz": {"id": "data/NI/Madriz", "isoid": "MD", "key": "Madriz", "lang": "es", "zip": "3[45]"}, "NI/Managua": {"id": "data/NI/Managua", "isoid": "MN", "key": "Managua", "lang": "es", "zip": "1[0-6]"}, "NI/Masaya": {"id": "data/NI/Masaya", "isoid": "MS", "key": "Masaya", "lang": "es", "zip": "4[12]"}, "NI/Matagalpa": {"id": "data/NI/Matagalpa", "isoid": "MT", "key": "Matagalpa", "lang": "es", "zip": "6[1-3]"}, "NI/Nueva Segovia": {"id": "data/NI/Nueva Segovia", "isoid": "NS", "key": "Nueva Segovia", "lang": "es", "zip": "3[7-9]"}, "NI/Región Autónoma de la Costa Caribe Norte": {"id": "data/NI/Región Autónoma de la Costa Caribe Norte", "isoid": "AN", "key": "Región Autónoma de la Costa Caribe Norte", "lang": "es", "zip": "7[12]"}, "NI/Región Autónoma de la Costa Caribe Sur": {"id": "data/NI/Región Autónoma de la Costa Caribe Sur", "isoid": "AS", "key": "Región Autónoma de la Costa Caribe Sur", "lang": "es", "zip": "8[1-3]"}, "NI/Rivas": {"id": "data/NI/Rivas", "isoid": "RI", "key": "Rivas", "lang": "es", "zip": "4[78]"}, "NI/Río San Juan": {"id": "data/NI/Río San Juan", "isoid": "SJ", "key": "Río San Juan", "lang": "es", "zip": "9[12]"}}