{"PH": {"fmt": "%N%n%O%n%A%n%D, %C%n%Z %S", "id": "data/PH", "key": "PH", "lang": "en", "languages": "en", "name": "PHILIPPINES", "posturl": "http://www.philpost.gov.ph/", "sub_isoids": "ABR~AGN~AGS~AKL~ALB~ANT~APA~AUR~BAS~BAN~BTN~BTG~BEN~BIL~BOH~BUK~BUL~CAG~CAN~CAS~CAM~CAP~CAT~CAV~CEB~COM~NCO~DAV~DAS~DVO~DAO~DIN~EAS~GUI~IFU~ILN~ILS~ILI~ISA~KAL~LUN~LAG~LAN~LAS~LEY~MAG~MAD~MAS~00~MDC~MDR~MSC~MSR~MOU~NEC~NER~NSA~NUE~NUV~PLW~PAM~PAN~QUE~QUI~RIZ~ROM~WSA~SAR~SIG~SOR~SCO~SLE~SUK~SLU~SUN~SUR~TAR~TAW~ZMB~ZAN~ZAS~ZSI", "sub_keys": "Abra~Agusan del Norte~Agusan del Sur~Aklan~Albay~Antique~Apayao~Aurora~Basilan~Bataan~Batanes~Batangas~Benguet~Biliran~Bohol~Bukidnon~Bulacan~Cagayan~Camarines Norte~Camarines Sur~Camiguin~Capiz~Catanduanes~Cavite~Cebu~Compostela Valley~Cotabato~Davao del Norte~Davao del Sur~Davao Occidental~Davao Oriental~Dinagat Islands~Eastern Samar~Guimaras~Ifugao~Ilocos Norte~Ilocos Sur~Iloilo~Isabela~Kalinga~La Union~Laguna~Lanao del Norte~Lanao del Sur~Leyte~Maguindanao~Marinduque~Masbate~Metro Manila~Mindoro Occidental~Mindoro Oriental~Misamis Occidental~Misamis Oriental~Mountain Province~Negros Occidental~Negros Oriental~Northern Samar~Nueva Ecija~Nueva Vizcaya~Palawan~Pampanga~Pangasinan~Quezon Province~Quirino~Rizal~Romblon~Samar~Sarangani~Siquijor~Sorsogon~South Cotabato~Southern Leyte~Sultan Kudarat~Sulu~Surigao del Norte~Surigao del Sur~Tarlac~Tawi-Tawi~Zambales~Zamboanga del Norte~Zamboanga del Sur~Zamboanga Sibuguey", "sub_zipexs": "2800,2826~8600,8611~8500,8513~5600,5616~4500,4517~5700,5717~3800,3806,3808~3200,3207~7300,7306~2100,2114~3900,3905~4200,4234~2600,2615~6543,6550~6300,6337~8700,8723~3000,3024~3500,3528~4600,4612~4400,4436~9100,9104~5800,5816~4800,4810~4100,4126~6000,6053~8800,8810~9400,9417~8100,8120~8000,8010~8015,8013~8200,8210~8426,8412~6800,6822~5044,5046~3600,3610~2900,2922~2700,2733~5000,5043~3300,3336~3807,3809,3814~2500,2520~4000,4033~9200,9223~9300,9321,9700,9716~6500,6542~9600,9619~4900,4905~5400,5421~~5100,5111~5200,5214~7200,7215~9000,9025~2616,2625~6100,6132~6200,6224~6400,6423~3100,3133~3700,3714~5300,5322~2000,2022~2400,2447~4300,4342~3400,3405~1850,1990~5500,5516~6700,6725~8015~6225,6230~4700,4715~9500,9513~6600,6613~9800,9811~7400,7416~8400,8425~8300,8319~2300,2318~7500,7509~2200,2213~7100,7124~7000,7043~7000,7043", "sub_zips": "28[0-2]~86[01]~85[01]~56[01]~45[01]~57[01]~380[0-68]~320~730~21[01]~390~42[0-3]~26(0|1[0-5])~65(4[3-9]|5)~63[0-3]~87[0-2]~30[0-2]~35[0-2]~46[01]~44[0-3]~910~58[01]~48[01]~41[0-2]~60[0-5]~88[01]~94[01]~81[0-2]~80[01]~801[1-5]~82[01]~84[12]~68[0-2]~504[4-6]~36[01]~29[0-2]~27[0-3]~50([0-3]|4[0-3])~33[0-3]~38(0[79]|1[0-4])~25[0-2]~40[0-3]~92[0-2]~9(3[0-2]|7[01])~65([0-3]|4[0-2])~96[01]~490~54[0-2]~~51[01]~52[01]~72[01]~90[0-2]~26(1[6-9]|2[0-5])~61[0-3]~62[0-2]~64[0-2]~31[0-3]~37[01]~53[0-2]~20[0-2]~24[0-4]~43[0-4]~340~1[89]~55[01]~67[0-2]~8015~62(2[5-9]|30)~47[01]~95[01]~66[10]~98[01]~74[01]~84[0-2]~83[01]~23[01]~750~22[01]~71[0-2]~70[0-4]~70[0-4]", "zip": "\\d{4}", "zipex": "1008,1050,1135,1207,2000,1000"}, "PH/Abra": {"id": "data/PH/Abra", "isoid": "ABR", "key": "Abra", "lang": "en", "zip": "28[0-2]", "zipex": "2800,2826"}, "PH/Agusan del Norte": {"id": "data/PH/Agusan del Norte", "isoid": "AGN", "key": "Agusan del Norte", "lang": "en", "zip": "86[01]", "zipex": "8600,8611"}, "PH/Agusan del Sur": {"id": "data/PH/Agusan del Sur", "isoid": "AGS", "key": "Agusan del Sur", "lang": "en", "zip": "85[01]", "zipex": "8500,8513"}, "PH/Aklan": {"id": "data/PH/Aklan", "isoid": "AKL", "key": "Aklan", "lang": "en", "zip": "56[01]", "zipex": "5600,5616"}, "PH/Albay": {"id": "data/PH/Albay", "isoid": "ALB", "key": "Albay", "lang": "en", "zip": "45[01]", "zipex": "4500,4517"}, "PH/Antique": {"id": "data/PH/Antique", "isoid": "ANT", "key": "Antique", "lang": "en", "zip": "57[01]", "zipex": "5700,5717"}, "PH/Apayao": {"id": "data/PH/Apayao", "isoid": "APA", "key": "Apayao", "lang": "en", "zip": "380[0-68]", "zipex": "3800,3806,3808"}, "PH/Aurora": {"id": "data/PH/Aurora", "isoid": "AUR", "key": "Aurora", "lang": "en", "zip": "320", "zipex": "3200,3207"}, "PH/Basilan": {"id": "data/PH/Basilan", "isoid": "BAS", "key": "Basilan", "lang": "en", "zip": "730", "zipex": "7300,7306"}, "PH/Bataan": {"id": "data/PH/Bataan", "isoid": "BAN", "key": "Bataan", "lang": "en", "zip": "21[01]", "zipex": "2100,2114"}, "PH/Batanes": {"id": "data/PH/Batanes", "isoid": "BTN", "key": "Batanes", "lang": "en", "zip": "390", "zipex": "3900,3905"}, "PH/Batangas": {"id": "data/PH/Batangas", "isoid": "BTG", "key": "Batangas", "lang": "en", "zip": "42[0-3]", "zipex": "4200,4234"}, "PH/Benguet": {"id": "data/PH/Benguet", "isoid": "BEN", "key": "Benguet", "lang": "en", "zip": "26(0|1[0-5])", "zipex": "2600,2615"}, "PH/Biliran": {"id": "data/PH/Biliran", "isoid": "BIL", "key": "Biliran", "lang": "en", "zip": "65(4[3-9]|5)", "zipex": "6543,6550"}, "PH/Bohol": {"id": "data/PH/Bohol", "isoid": "BOH", "key": "Bohol", "lang": "en", "zip": "63[0-3]", "zipex": "6300,6337"}, "PH/Bukidnon": {"id": "data/PH/Bukidnon", "isoid": "BUK", "key": "Bukidnon", "lang": "en", "zip": "87[0-2]", "zipex": "8700,8723"}, "PH/Bulacan": {"id": "data/PH/Bulacan", "isoid": "BUL", "key": "Bulacan", "lang": "en", "zip": "30[0-2]", "zipex": "3000,3024"}, "PH/Cagayan": {"id": "data/PH/Cagayan", "isoid": "CAG", "key": "Cagayan", "lang": "en", "zip": "35[0-2]", "zipex": "3500,3528"}, "PH/Camarines Norte": {"id": "data/PH/Camarines Norte", "isoid": "CAN", "key": "Camarines Norte", "lang": "en", "zip": "46[01]", "zipex": "4600,4612"}, "PH/Camarines Sur": {"id": "data/PH/Camarines Sur", "isoid": "CAS", "key": "Camarines Sur", "lang": "en", "zip": "44[0-3]", "zipex": "4400,4436"}, "PH/Camiguin": {"id": "data/PH/Camiguin", "isoid": "CAM", "key": "Camiguin", "lang": "en", "zip": "910", "zipex": "9100,9104"}, "PH/Capiz": {"id": "data/PH/Capiz", "isoid": "CAP", "key": "Capiz", "lang": "en", "zip": "58[01]", "zipex": "5800,5816"}, "PH/Catanduanes": {"id": "data/PH/Catanduanes", "isoid": "CAT", "key": "Catanduanes", "lang": "en", "zip": "48[01]", "zipex": "4800,4810"}, "PH/Cavite": {"id": "data/PH/Cavite", "isoid": "CAV", "key": "Cavite", "lang": "en", "zip": "41[0-2]", "zipex": "4100,4126"}, "PH/Cebu": {"id": "data/PH/Cebu", "isoid": "CEB", "key": "Cebu", "lang": "en", "zip": "60[0-5]", "zipex": "6000,6053"}, "PH/Compostela Valley": {"id": "data/PH/Compostela Valley", "isoid": "COM", "key": "Compostela Valley", "lang": "en", "zip": "88[01]", "zipex": "8800,8810"}, "PH/Cotabato": {"id": "data/PH/Cotabato", "isoid": "NCO", "key": "Cotabato", "lang": "en", "zip": "94[01]", "zipex": "9400,9417"}, "PH/Davao Occidental": {"id": "data/PH/Davao Occidental", "isoid": "DVO", "key": "Davao Occidental", "lang": "en", "zip": "801[1-5]", "zipex": "8015,8013"}, "PH/Davao Oriental": {"id": "data/PH/Davao Oriental", "isoid": "DAO", "key": "Davao Oriental", "lang": "en", "zip": "82[01]", "zipex": "8200,8210"}, "PH/Davao del Norte": {"id": "data/PH/Davao del Norte", "isoid": "DAV", "key": "Davao del Norte", "lang": "en", "zip": "81[0-2]", "zipex": "8100,8120"}, "PH/Davao del Sur": {"id": "data/PH/Davao del Sur", "isoid": "DAS", "key": "Davao del Sur", "lang": "en", "zip": "80[01]", "zipex": "8000,8010"}, "PH/Dinagat Islands": {"id": "data/PH/Dinagat Islands", "isoid": "DIN", "key": "Dinagat Islands", "lang": "en", "zip": "84[12]", "zipex": "8426,8412"}, "PH/Eastern Samar": {"id": "data/PH/Eastern Samar", "isoid": "EAS", "key": "Eastern Samar", "lang": "en", "zip": "68[0-2]", "zipex": "6800,6822"}, "PH/Guimaras": {"id": "data/PH/Guimaras", "isoid": "GUI", "key": "Guimaras", "lang": "en", "zip": "504[4-6]", "zipex": "5044,5046"}, "PH/Ifugao": {"id": "data/PH/Ifugao", "isoid": "IFU", "key": "Ifugao", "lang": "en", "zip": "36[01]", "zipex": "3600,3610"}, "PH/Ilocos Norte": {"id": "data/PH/Ilocos Norte", "isoid": "ILN", "key": "Ilocos Norte", "lang": "en", "zip": "29[0-2]", "zipex": "2900,2922"}, "PH/Ilocos Sur": {"id": "data/PH/Ilocos Sur", "isoid": "ILS", "key": "Ilocos Sur", "lang": "en", "zip": "27[0-3]", "zipex": "2700,2733"}, "PH/Iloilo": {"id": "data/PH/Iloilo", "isoid": "ILI", "key": "Iloilo", "lang": "en", "zip": "50([0-3]|4[0-3])", "zipex": "5000,5043"}, "PH/Isabela": {"id": "data/PH/Isabela", "isoid": "ISA", "key": "Isabela", "lang": "en", "zip": "33[0-3]", "zipex": "3300,3336"}, "PH/Kalinga": {"id": "data/PH/Kalinga", "isoid": "KAL", "key": "Kalinga", "lang": "en", "zip": "38(0[79]|1[0-4])", "zipex": "3807,3809,3814"}, "PH/La Union": {"id": "data/PH/La Union", "isoid": "LUN", "key": "La Union", "lang": "en", "zip": "25[0-2]", "zipex": "2500,2520"}, "PH/Laguna": {"id": "data/PH/Laguna", "isoid": "LAG", "key": "Laguna", "lang": "en", "zip": "40[0-3]", "zipex": "4000,4033"}, "PH/Lanao del Norte": {"id": "data/PH/Lanao del Norte", "isoid": "LAN", "key": "Lanao del Norte", "lang": "en", "zip": "92[0-2]", "zipex": "9200,9223"}, "PH/Lanao del Sur": {"id": "data/PH/Lanao del Sur", "isoid": "LAS", "key": "Lanao del Sur", "lang": "en", "zip": "9(3[0-2]|7[01])", "zipex": "9300,9321,9700,9716"}, "PH/Leyte": {"id": "data/PH/Leyte", "isoid": "LEY", "key": "Leyte", "lang": "en", "zip": "65([0-3]|4[0-2])", "zipex": "6500,6542"}, "PH/Maguindanao": {"id": "data/PH/Maguindanao", "isoid": "MAG", "key": "Maguindanao", "lang": "en", "zip": "96[01]", "zipex": "9600,9619"}, "PH/Marinduque": {"id": "data/PH/Marinduque", "isoid": "MAD", "key": "Marinduque", "lang": "en", "zip": "490", "zipex": "4900,4905"}, "PH/Masbate": {"id": "data/PH/Masbate", "isoid": "MAS", "key": "Masbate", "lang": "en", "zip": "54[0-2]", "zipex": "5400,5421"}, "PH/Metro Manila": {"id": "data/PH/Metro Manila", "isoid": "00", "key": "Metro Manila", "lang": "en"}, "PH/Mindoro Occidental": {"id": "data/PH/Mindoro Occidental", "isoid": "MDC", "key": "Mindoro Occidental", "lang": "en", "zip": "51[01]", "zipex": "5100,5111"}, "PH/Mindoro Oriental": {"id": "data/PH/Mindoro Oriental", "isoid": "MDR", "key": "Mindoro Oriental", "lang": "en", "zip": "52[01]", "zipex": "5200,5214"}, "PH/Misamis Occidental": {"id": "data/PH/Misamis Occidental", "isoid": "MSC", "key": "Misamis Occidental", "lang": "en", "zip": "72[01]", "zipex": "7200,7215"}, "PH/Misamis Oriental": {"id": "data/PH/Misamis Oriental", "isoid": "MSR", "key": "Misamis Oriental", "lang": "en", "zip": "90[0-2]", "zipex": "9000,9025"}, "PH/Mountain Province": {"id": "data/PH/Mountain Province", "isoid": "MOU", "key": "Mountain Province", "lang": "en", "zip": "26(1[6-9]|2[0-5])", "zipex": "2616,2625"}, "PH/Negros Occidental": {"id": "data/PH/Negros Occidental", "isoid": "NEC", "key": "Negros Occidental", "lang": "en", "zip": "61[0-3]", "zipex": "6100,6132"}, "PH/Negros Oriental": {"id": "data/PH/Negros Oriental", "isoid": "NER", "key": "Negros Oriental", "lang": "en", "zip": "62[0-2]", "zipex": "6200,6224"}, "PH/Northern Samar": {"id": "data/PH/Northern Samar", "isoid": "NSA", "key": "Northern Samar", "lang": "en", "zip": "64[0-2]", "zipex": "6400,6423"}, "PH/Nueva Ecija": {"id": "data/PH/Nueva Ecija", "isoid": "NUE", "key": "Nueva Ecija", "lang": "en", "zip": "31[0-3]", "zipex": "3100,3133"}, "PH/Nueva Vizcaya": {"id": "data/PH/Nueva Vizcaya", "isoid": "NUV", "key": "Nueva Vizcaya", "lang": "en", "zip": "37[01]", "zipex": "3700,3714"}, "PH/Palawan": {"id": "data/PH/Palawan", "isoid": "PLW", "key": "Palawan", "lang": "en", "zip": "53[0-2]", "zipex": "5300,5322"}, "PH/Pampanga": {"id": "data/PH/Pampanga", "isoid": "PAM", "key": "Pampanga", "lang": "en", "zip": "20[0-2]", "zipex": "2000,2022"}, "PH/Pangasinan": {"id": "data/PH/Pangasinan", "isoid": "PAN", "key": "Pangasinan", "lang": "en", "zip": "24[0-4]", "zipex": "2400,2447"}, "PH/Quezon Province": {"id": "data/PH/Quezon Province", "isoid": "QUE", "key": "Quezon Province", "lang": "en", "zip": "43[0-4]", "zipex": "4300,4342"}, "PH/Quirino": {"id": "data/PH/Quirino", "isoid": "QUI", "key": "Quirino", "lang": "en", "zip": "340", "zipex": "3400,3405"}, "PH/Rizal": {"id": "data/PH/Rizal", "isoid": "RIZ", "key": "Rizal", "lang": "en", "zip": "1[89]", "zipex": "1850,1990"}, "PH/Romblon": {"id": "data/PH/Romblon", "isoid": "ROM", "key": "Romblon", "lang": "en", "zip": "55[01]", "zipex": "5500,5516"}, "PH/Samar": {"id": "data/PH/Samar", "isoid": "WSA", "key": "Samar", "lang": "en", "zip": "67[0-2]", "zipex": "6700,6725"}, "PH/Sarangani": {"id": "data/PH/Sarangani", "isoid": "SAR", "key": "Sarangani", "lang": "en", "zip": "8015", "zipex": "8015"}, "PH/Siquijor": {"id": "data/PH/Siquijor", "isoid": "SIG", "key": "Siquijor", "lang": "en", "zip": "62(2[5-9]|30)", "zipex": "6225,6230"}, "PH/Sorsogon": {"id": "data/PH/Sorsogon", "isoid": "SOR", "key": "Sorsogon", "lang": "en", "zip": "47[01]", "zipex": "4700,4715"}, "PH/South Cotabato": {"id": "data/PH/South Cotabato", "isoid": "SCO", "key": "South Cotabato", "lang": "en", "zip": "95[01]", "zipex": "9500,9513"}, "PH/Southern Leyte": {"id": "data/PH/Southern Leyte", "isoid": "SLE", "key": "Southern Leyte", "lang": "en", "zip": "66[10]", "zipex": "6600,6613"}, "PH/Sultan Kudarat": {"id": "data/PH/Sultan Kudarat", "isoid": "SUK", "key": "Sultan Kudarat", "lang": "en", "zip": "98[01]", "zipex": "9800,9811"}, "PH/Sulu": {"id": "data/PH/Sulu", "isoid": "SLU", "key": "Sulu", "lang": "en", "zip": "74[01]", "zipex": "7400,7416"}, "PH/Surigao del Norte": {"id": "data/PH/Surigao del Norte", "isoid": "SUN", "key": "Surigao del Norte", "lang": "en", "zip": "84[0-2]", "zipex": "8400,8425"}, "PH/Surigao del Sur": {"id": "data/PH/Surigao del Sur", "isoid": "SUR", "key": "Surigao del Sur", "lang": "en", "zip": "83[01]", "zipex": "8300,8319"}, "PH/Tarlac": {"id": "data/PH/Tarlac", "isoid": "TAR", "key": "Tarlac", "lang": "en", "zip": "23[01]", "zipex": "2300,2318"}, "PH/Tawi-Tawi": {"id": "data/PH/Tawi-Tawi", "isoid": "TAW", "key": "Tawi-Tawi", "lang": "en", "zip": "750", "zipex": "7500,7509"}, "PH/Zambales": {"id": "data/PH/Zambales", "isoid": "ZMB", "key": "Zambales", "lang": "en", "zip": "22[01]", "zipex": "2200,2213"}, "PH/Zamboanga Sibuguey": {"id": "data/PH/Zamboanga Sibuguey", "isoid": "ZSI", "key": "Zamboanga Sibuguey", "lang": "en", "zip": "70[0-4]", "zipex": "7000,7043"}, "PH/Zamboanga del Norte": {"id": "data/PH/Zamboanga del Norte", "isoid": "ZAN", "key": "Zamboanga del Norte", "lang": "en", "zip": "71[0-2]", "zipex": "7100,7124"}, "PH/Zamboanga del Sur": {"id": "data/PH/Zamboanga del Sur", "isoid": "ZAS", "key": "Zamboanga del Sur", "lang": "en", "zip": "70[0-4]", "zipex": "7000,7043"}}