{"RU": {"fmt": "%N%n%O%n%A%n%C%n%S%n%Z", "id": "data/RU", "key": "RU", "lang": "ru", "languages": "ru", "lfmt": "%N%n%O%n%A%n%C%n%S%n%Z", "name": "RUSSIAN FEDERATION", "posturl": "https://www.pochta.ru/post-index", "require": "ACSZ", "state_name_type": "oblast", "sub_isoids": "ALT~AMU~ARK~AST~BEL~BRY~VLA~VGG~VLG~VOR~YEV~ZAB~IVA~IRK~KB~KGD~KLU~KAM~KC~KEM~KIR~KOS~KDA~KYA~KGN~KRS~LEN~LIP~MAG~MOW~MOS~MUR~NEN~NIZ~NGR~NVS~OMS~ORE~ORL~PNZ~PER~PRI~PSK~AD~AL~BA~BU~DA~IN~KL~KR~KO~~ME~MO~SA~SE~TA~TY~UD~KK~ROS~RYA~SAM~SPE~SAR~SAK~SVE~~SMO~STA~TAM~TVE~TOM~TUL~TYU~ULY~KHA~KHM~CHE~CE~CU~CHU~YAN~YAR", "sub_keys": "Алтайский край~Амурская область~Архангельская область~Астраханская область~Белгородская область~Брянская область~Владимирская область~Волгоградская область~Вологодская область~Воронежская область~Еврейская автономная область~Забайкальский край~Ивановская область~Иркутская область~Кабардино-Балкарская Республика~Калининградская область~Калужская область~Камчатский край~Карачаево-Черкесская Республика~Кемеровская область~Кировская область~Костромская область~Краснодарский край~Красноярский край~Курганская область~Курская область~Ленинградская область~Липецкая область~Магаданская область~Москва~Московская область~Мурманская область~Ненецкий автономный округ~Нижегородская область~Новгородская область~Новосибирская область~Омская область~Оренбургская область~Орловская область~Пензенская область~Пермский край~Приморский край~Псковская область~Республика Адыгея~Республика Алтай~Республика Башкортостан~Республика Бурятия~Республика Дагестан~Республика Ингушетия~Республика Калмыкия~Республика Карелия~Республика Коми~Автономна Республіка Крим~Республика Марий Эл~Республика Мордовия~Республика Саха (Якутия)~Республика Северная Осетия-Алания~Республика Татарстан~Республика Тыва~Республика Удмуртия~Республика Хакасия~Ростовская область~Рязанская область~Самарская область~Санкт-Петербург~Саратовская область~Сахалинская область~Свердловская область~Севастополь~Смоленская область~Ставропольский край~Тамбовская область~Тверская область~Томская область~Тульская область~Тюменская область~Ульяновская область~Хабаровский край~Ханты-Мансийский автономный округ~Челябинская область~Чеченская Республика~Чувашская Республика~Чукотский автономный округ~Ямало-Ненецкий автономный округ~Ярославская область", "sub_lnames": "Altayskiy kray~Amurskaya oblast'~Arkhangelskaya oblast'~Astrakhanskaya oblast'~Belgorodskaya oblast'~Bryanskaya oblast'~Vladimirskaya oblast'~Volgogradskaya oblast'~Vologodskaya oblast'~Voronezhskaya oblast'~Evreyskaya avtonomnaya oblast'~Zabaykalskiy kray~Ivanovskaya oblast'~Irkutskaya oblast'~Kabardino-Balkarskaya Republits~Kaliningradskaya oblast'~Kaluzhskaya oblast'~Kamchatskiy kray~Karachaevo-Cherkesskaya Republits~Kemerovskaya oblast'~Kirovskaya oblast'~Kostromskaya oblast'~Krasnodarskiy kray~Krasnoyarskiy kray~Kurganskaya oblast'~Kurskaya oblast'~Leningradskaya oblast'~Lipetskaya oblast'~Magadanskaya oblast'~Moskva~Moskovskaya oblast'~Murmanskaya oblast'~Nenetskiy~Nizhegorodskaya oblast'~Novgorodskaya oblast'~Novosibirskaya oblast'~Omskaya oblast'~Orenburgskaya oblast'~Orlovskaya oblast'~Penzenskaya oblast'~Permskiy kray~Primorskiy kray~Pskovskaya oblast'~Respublika Adygeya~Altay Republits~Bashkortostan Republits~Buryatiya Republits~Dagestan Republits~Ingushetiya Republits~Respublika Kalmykiya~Kareliya Republits~Komi Republits~Respublika Krym~Respublika Mariy El~Respublika Mordoviya~Sakha (Yakutiya) Republits~Respublika Severnaya Osetiya-Alaniya~Respublika Tatarstan~Tyva Republits~Udmurtskaja Respublika~Khakasiya Republits~Rostovskaya oblast'~Ryazanskaya oblast'~Samarskaya oblast'~Sankt-Peterburg~Saratovskaya oblast'~Sakhalinskaya oblast'~Sverdlovskaya oblast'~Sevastopol'~Smolenskaya oblast'~Stavropolskiy kray~Tambovskaya oblast'~Tverskaya oblast'~Tomskaya oblast'~Tulskaya oblast'~Tyumenskaya oblast'~Ulyanovskaya oblast'~Khabarovskiy kray~Khanty-Mansiyskiy avtonomnyy okrug~Chelyabinskaya oblast'~Chechenskaya Republits~Chuvashia~Chukotskiy~Yamalo-Nenetskiy~Yaroslavskaya oblast'", "sub_names": "Алтайский край~Амурская область~Архангельская область~Астраханская область~Белгородская область~Брянская область~Владимирская область~Волгоградская область~Вологодская область~Воронежская область~Еврейская автономная область~Забайкальский край~Ивановская область~Иркутская область~Кабардино-Балкарская Республика~Калининградская область~Калужская область~Камчатский край~Карачаево-Черкесская Республика~Кемеровская область~Кировская область~Костромская область~Краснодарский край~Красноярский край~Курганская область~Курская область~Ленинградская область~Липецкая область~Магаданская область~Москва~Московская область~Мурманская область~Ненецкий автономный округ~Нижегородская область~Новгородская область~Новосибирская область~Омская область~Оренбургская область~Орловская область~Пензенская область~Пермский край~Приморский край~Псковская область~Республика Адыгея~Республика Алтай~Республика Башкортостан~Республика Бурятия~Республика Дагестан~Республика Ингушетия~Республика Калмыкия~Республика Карелия~Республика Коми~Республика Крым~Республика Марий Эл~Республика Мордовия~Республика Саха (Якутия)~Республика Северная Осетия-Алания~Республика Татарстан~Республика Тыва~Республика Удмуртия~Республика Хакасия~Ростовская область~Рязанская область~Самарская область~Санкт-Петербург~Саратовская область~Сахалинская область~Свердловская область~Севастополь~Смоленская область~Ставропольский край~Тамбовская область~Тверская область~Томская область~Тульская область~Тюменская область~Ульяновская область~Хабаровский край~Ханты-Мансийский автономный округ~Челябинская область~Чеченская Республика~Чувашская Республика~Чукотский автономный округ~Ямало-Ненецкий автономный округ~Ярославская область", "sub_zips": "65[6-9]~67[56]~16[3-5]~41[4-6]~30[89]~24[1-3]~60[0-2]~40[0-4]~16[0-2]~39[4-7]~679~6(?:7[2-4]|87)~15[3-5]~66[4-9]~36[01]~23[6-8]~24[89]~68[348]~369~65[0-4]~61[0-3]~15[67]~35[0-4]~6(?:6[0-3]|4[78])~64[01]~30[5-7]~18[78]~39[89]~68[56]~1(?:0[1-9]|1|2|3[0-5]|4[0-4])~14[0-4]~18[34]~166~60[3-7]~17[3-5]~63[0-3]~64[4-6]~46[0-2]~30[23]~44[0-2]~61[4-9]~69[0-2]~18[0-2]~385~649~45[0-3]~67[01]~36[78]~386~35[89]~18[56]~16[7-9]~29[5-8]~42[45]~43[01]~67[78]~36[23]~42[0-3]~66[78]~42[67]~655~34[4-7]~39[01]~44[3-6]~19~41[0-3]~69[34]~62[0-4]~299~21[4-6]~35[5-7]~39[23]~17[0-2]~63[4-6]~30[01]~62[5-7]~43[23]~68[0-2]~628~45[4-7]~36[4-6]~42[89]~689~629~15[0-2]", "upper": "AC", "zip": "\\d{6}", "zipex": "247112,103375,188300"}, "RU/Автономна Республіка Крим": {"id": "data/RU/Автономна Республіка Крим", "key": "Автономна Республіка Крим", "lang": "ru", "lname": "Respublika Krym", "name": "Республика Крым", "zip": "29[5-8]"}, "RU/Алтайский край": {"id": "data/RU/Алтайский край", "isoid": "ALT", "key": "Алтайский край", "lang": "ru", "lname": "Altayskiy kray", "name": "Алтайский край", "zip": "65[6-9]"}, "RU/Амурская область": {"id": "data/RU/Амурская область", "isoid": "AMU", "key": "Амурская область", "lang": "ru", "lname": "Amurskaya oblast'", "name": "Амурская область", "zip": "67[56]"}, "RU/Архангельская область": {"id": "data/RU/Архангельская область", "isoid": "ARK", "key": "Архангельская область", "lang": "ru", "lname": "Arkhangelskaya oblast'", "name": "Архангельская область", "zip": "16[3-5]"}, "RU/Астраханская область": {"id": "data/RU/Астраханская область", "isoid": "AST", "key": "Астраханская область", "lang": "ru", "lname": "Astrakhanskaya oblast'", "name": "Астраханская область", "zip": "41[4-6]"}, "RU/Белгородская область": {"id": "data/RU/Белгородская область", "isoid": "BEL", "key": "Белгородская область", "lang": "ru", "lname": "Belgorodskaya oblast'", "name": "Белгородская область", "zip": "30[89]"}, "RU/Брянская область": {"id": "data/RU/Брянская область", "isoid": "BRY", "key": "Брянская область", "lang": "ru", "lname": "Bryanskaya oblast'", "name": "Брянская область", "zip": "24[1-3]"}, "RU/Владимирская область": {"id": "data/RU/Владимирская область", "isoid": "VLA", "key": "Владимирская область", "lang": "ru", "lname": "Vladimirskaya oblast'", "name": "Владимирская область", "zip": "60[0-2]"}, "RU/Волгоградская область": {"id": "data/RU/Волгоградская область", "isoid": "VGG", "key": "Волгоградская область", "lang": "ru", "lname": "Volgogradskaya oblast'", "name": "Волгоградская область", "zip": "40[0-4]"}, "RU/Вологодская область": {"id": "data/RU/Вологодская область", "isoid": "VLG", "key": "Вологодская область", "lang": "ru", "lname": "Vologodskaya oblast'", "name": "Вологодская область", "zip": "16[0-2]"}, "RU/Воронежская область": {"id": "data/RU/Воронежская область", "isoid": "VOR", "key": "Воронежская область", "lang": "ru", "lname": "Voronezhskaya oblast'", "name": "Воронежская область", "zip": "39[4-7]"}, "RU/Еврейская автономная область": {"id": "data/RU/Еврейская автономная область", "isoid": "YEV", "key": "Еврейская автономная область", "lang": "ru", "lname": "Evreyskaya avtonomnaya oblast'", "name": "Еврейская автономная область", "zip": "679"}, "RU/Забайкальский край": {"id": "data/RU/Забайкальский край", "isoid": "ZAB", "key": "Забайкальский край", "lang": "ru", "lname": "Zabaykalskiy kray", "name": "Забайкальский край", "zip": "6(?:7[2-4]|87)"}, "RU/Ивановская область": {"id": "data/RU/Ивановская область", "isoid": "IVA", "key": "Ивановская область", "lang": "ru", "lname": "Ivanovskaya oblast'", "name": "Ивановская область", "zip": "15[3-5]"}, "RU/Иркутская область": {"id": "data/RU/Иркутская область", "isoid": "IRK", "key": "Иркутская область", "lang": "ru", "lname": "Irkutskaya oblast'", "name": "Иркутская область", "zip": "66[4-9]"}, "RU/Кабардино-Балкарская Республика": {"id": "data/RU/Кабардино-Балкарская Республика", "isoid": "KB", "key": "Кабардино-Балкарская Республика", "lang": "ru", "lname": "Kabardino-Balkarskaya Republits", "name": "Кабардино-Балкарская Республика", "zip": "36[01]"}, "RU/Калининградская область": {"id": "data/RU/Калининградская область", "isoid": "KGD", "key": "Калининградская область", "lang": "ru", "lname": "Kaliningradskaya oblast'", "name": "Калининградская область", "zip": "23[6-8]"}, "RU/Калужская область": {"id": "data/RU/Калужская область", "isoid": "KLU", "key": "Калужская область", "lang": "ru", "lname": "Kaluzhskaya oblast'", "name": "Калужская область", "zip": "24[89]"}, "RU/Камчатский край": {"id": "data/RU/Камчатский край", "isoid": "KAM", "key": "Камчатский край", "lang": "ru", "lname": "Kamchatskiy kray", "name": "Камчатский край", "zip": "68[348]"}, "RU/Карачаево-Черкесская Республика": {"id": "data/RU/Карачаево-Черкесская Республика", "isoid": "KC", "key": "Карачаево-Черкесская Республика", "lang": "ru", "lname": "Karachaevo-Cherkesskaya Republits", "name": "Карачаево-Черкесская Республика", "zip": "369"}, "RU/Кемеровская область": {"id": "data/RU/Кемеровская область", "isoid": "KEM", "key": "Кемеровская область", "lang": "ru", "lname": "Kemerovskaya oblast'", "name": "Кемеровская область", "zip": "65[0-4]"}, "RU/Кировская область": {"id": "data/RU/Кировская область", "isoid": "KIR", "key": "Кировская область", "lang": "ru", "lname": "Kirovskaya oblast'", "name": "Кировская область", "zip": "61[0-3]"}, "RU/Костромская область": {"id": "data/RU/Костромская область", "isoid": "KOS", "key": "Костромская область", "lang": "ru", "lname": "Kostromskaya oblast'", "name": "Костромская область", "zip": "15[67]"}, "RU/Краснодарский край": {"id": "data/RU/Краснодарский край", "isoid": "KDA", "key": "Краснодарский край", "lang": "ru", "lname": "Krasnodarskiy kray", "name": "Краснодарский край", "zip": "35[0-4]"}, "RU/Красноярский край": {"id": "data/RU/Красноярский край", "isoid": "KYA", "key": "Красноярский край", "lang": "ru", "lname": "Krasnoyarskiy kray", "name": "Красноярский край", "zip": "6(?:6[0-3]|4[78])"}, "RU/Курганская область": {"id": "data/RU/Курганская область", "isoid": "KGN", "key": "Курганская область", "lang": "ru", "lname": "Kurganskaya oblast'", "name": "Курганская область", "zip": "64[01]"}, "RU/Курская область": {"id": "data/RU/Курская область", "isoid": "KRS", "key": "Курская область", "lang": "ru", "lname": "Kurskaya oblast'", "name": "Курская область", "zip": "30[5-7]"}, "RU/Ленинградская область": {"id": "data/RU/Ленинградская область", "isoid": "LEN", "key": "Ленинградская область", "lang": "ru", "lname": "Leningradskaya oblast'", "name": "Ленинградская область", "zip": "18[78]"}, "RU/Липецкая область": {"id": "data/RU/Липецкая область", "isoid": "LIP", "key": "Липецкая область", "lang": "ru", "lname": "Lipetskaya oblast'", "name": "Липецкая область", "zip": "39[89]"}, "RU/Магаданская область": {"id": "data/RU/Магаданская область", "isoid": "MAG", "key": "Магаданская область", "lang": "ru", "lname": "Magadanskaya oblast'", "name": "Магаданская область", "zip": "68[56]"}, "RU/Москва": {"id": "data/RU/Москва", "isoid": "MOW", "key": "Москва", "lang": "ru", "lname": "Moskva", "name": "Москва", "zip": "1(?:0[1-9]|1|2|3[0-5]|4[0-4])"}, "RU/Московская область": {"id": "data/RU/Московская область", "isoid": "MOS", "key": "Московская область", "lang": "ru", "lname": "Moskovskaya oblast'", "name": "Московская область", "zip": "14[0-4]"}, "RU/Мурманская область": {"id": "data/RU/Мурманская область", "isoid": "MUR", "key": "Мурманская область", "lang": "ru", "lname": "Murmanskaya oblast'", "name": "Мурманская область", "zip": "18[34]"}, "RU/Ненецкий автономный округ": {"id": "data/RU/Ненецкий автономный округ", "isoid": "NEN", "key": "Ненецкий автономный округ", "lang": "ru", "lname": "Nenetskiy", "name": "Ненецкий автономный округ", "zip": "166"}, "RU/Нижегородская область": {"id": "data/RU/Нижегородская область", "isoid": "NIZ", "key": "Нижегородская область", "lang": "ru", "lname": "Nizhegorodskaya oblast'", "name": "Нижегородская область", "zip": "60[3-7]"}, "RU/Новгородская область": {"id": "data/RU/Новгородская область", "isoid": "NGR", "key": "Новгородская область", "lang": "ru", "lname": "Novgorodskaya oblast'", "name": "Новгородская область", "zip": "17[3-5]"}, "RU/Новосибирская область": {"id": "data/RU/Новосибирская область", "isoid": "NVS", "key": "Новосибирская область", "lang": "ru", "lname": "Novosibirskaya oblast'", "name": "Новосибирская область", "zip": "63[0-3]"}, "RU/Омская область": {"id": "data/RU/Омская область", "isoid": "OMS", "key": "Омская область", "lang": "ru", "lname": "Omskaya oblast'", "name": "Омская область", "zip": "64[4-6]"}, "RU/Оренбургская область": {"id": "data/RU/Оренбургская область", "isoid": "ORE", "key": "Оренбургская область", "lang": "ru", "lname": "Orenburgskaya oblast'", "name": "Оренбургская область", "zip": "46[0-2]"}, "RU/Орловская область": {"id": "data/RU/Орловская область", "isoid": "ORL", "key": "Орловская область", "lang": "ru", "lname": "Orlovskaya oblast'", "name": "Орловская область", "zip": "30[23]"}, "RU/Пензенская область": {"id": "data/RU/Пензенская область", "isoid": "PNZ", "key": "Пензенская область", "lang": "ru", "lname": "Penzenskaya oblast'", "name": "Пензенская область", "zip": "44[0-2]"}, "RU/Пермский край": {"id": "data/RU/Пермский край", "isoid": "PER", "key": "Пермский край", "lang": "ru", "lname": "Permskiy kray", "name": "Пермский край", "zip": "61[4-9]"}, "RU/Приморский край": {"id": "data/RU/Приморский край", "isoid": "PRI", "key": "Приморский край", "lang": "ru", "lname": "Primorskiy kray", "name": "Приморский край", "zip": "69[0-2]"}, "RU/Псковская область": {"id": "data/RU/Псковская область", "isoid": "PSK", "key": "Псковская область", "lang": "ru", "lname": "Pskovskaya oblast'", "name": "Псковская область", "zip": "18[0-2]"}, "RU/Республика Адыгея": {"id": "data/RU/Республика Адыгея", "isoid": "AD", "key": "Республика Адыгея", "lang": "ru", "lname": "Respublika Adygeya", "name": "Республика Адыгея", "zip": "385"}, "RU/Республика Алтай": {"id": "data/RU/Республика Алтай", "isoid": "AL", "key": "Республика Алтай", "lang": "ru", "lname": "Altay Republits", "name": "Республика Алтай", "zip": "649"}, "RU/Республика Башкортостан": {"id": "data/RU/Республика Башкортостан", "isoid": "BA", "key": "Республика Башкортостан", "lang": "ru", "lname": "Bashkortostan Republits", "name": "Республика Башкортостан", "zip": "45[0-3]"}, "RU/Республика Бурятия": {"id": "data/RU/Республика Бурятия", "isoid": "BU", "key": "Республика Бурятия", "lang": "ru", "lname": "Buryatiya Republits", "name": "Республика Бурятия", "zip": "67[01]"}, "RU/Республика Дагестан": {"id": "data/RU/Республика Дагестан", "isoid": "DA", "key": "Республика Дагестан", "lang": "ru", "lname": "Dagestan Republits", "name": "Республика Дагестан", "zip": "36[78]"}, "RU/Республика Ингушетия": {"id": "data/RU/Республика Ингушетия", "isoid": "IN", "key": "Республика Ингушетия", "lang": "ru", "lname": "Ingushetiya Republits", "name": "Республика Ингушетия", "zip": "386"}, "RU/Республика Калмыкия": {"id": "data/RU/Республика Калмыкия", "isoid": "KL", "key": "Республика Калмыкия", "lang": "ru", "lname": "Respublika Kalmykiya", "name": "Республика Калмыкия", "zip": "35[89]"}, "RU/Республика Карелия": {"id": "data/RU/Республика Карелия", "isoid": "KR", "key": "Республика Карелия", "lang": "ru", "lname": "Kareliya Republits", "name": "Республика Карелия", "zip": "18[56]"}, "RU/Республика Коми": {"id": "data/RU/Республика Коми", "isoid": "KO", "key": "Республика Коми", "lang": "ru", "lname": "Komi Republits", "name": "Республика Коми", "zip": "16[7-9]"}, "RU/Республика Марий Эл": {"id": "data/RU/Республика Марий Эл", "isoid": "ME", "key": "Республика Марий Эл", "lang": "ru", "lname": "Respublika Mariy El", "name": "Республика Марий Эл", "zip": "42[45]"}, "RU/Республика Мордовия": {"id": "data/RU/Республика Мордовия", "isoid": "MO", "key": "Республика Мордовия", "lang": "ru", "lname": "Respublika Mordoviya", "name": "Республика Мордовия", "zip": "43[01]"}, "RU/Республика Саха (Якутия)": {"id": "data/RU/Республика Саха (Якутия)", "isoid": "SA", "key": "Республика Саха (Якутия)", "lang": "ru", "lname": "Sakha (Yakutiya) Republits", "name": "Республика Саха (Якутия)", "zip": "67[78]"}, "RU/Республика Северная Осетия-Алания": {"id": "data/RU/Республика Северная Осетия-Алания", "isoid": "SE", "key": "Республика Северная Осетия-Алания", "lang": "ru", "lname": "Respublika Severnaya Osetiya-Alaniya", "name": "Республика Северная Осетия-Алания", "zip": "36[23]"}, "RU/Республика Татарстан": {"id": "data/RU/Республика Татарстан", "isoid": "TA", "key": "Республика Татарстан", "lang": "ru", "lname": "Respublika Tatarstan", "name": "Республика Татарстан", "zip": "42[0-3]"}, "RU/Республика Тыва": {"id": "data/RU/Республика Тыва", "isoid": "TY", "key": "Республика Тыва", "lang": "ru", "lname": "Tyva Republits", "name": "Республика Тыва", "zip": "66[78]"}, "RU/Республика Удмуртия": {"id": "data/RU/Республика Удмуртия", "isoid": "UD", "key": "Республика Удмуртия", "lang": "ru", "lname": "Udmurtskaja Respublika", "name": "Республика Удмуртия", "zip": "42[67]"}, "RU/Республика Хакасия": {"id": "data/RU/Республика Хакасия", "isoid": "KK", "key": "Республика Хакасия", "lang": "ru", "lname": "Khakasiya Republits", "name": "Республика Хакасия", "zip": "655"}, "RU/Ростовская область": {"id": "data/RU/Ростовская область", "isoid": "ROS", "key": "Ростовская область", "lang": "ru", "lname": "Rostovskaya oblast'", "name": "Ростовская область", "zip": "34[4-7]"}, "RU/Рязанская область": {"id": "data/RU/Рязанская область", "isoid": "RYA", "key": "Рязанская область", "lang": "ru", "lname": "Ryazanskaya oblast'", "name": "Рязанская область", "zip": "39[01]"}, "RU/Самарская область": {"id": "data/RU/Самарская область", "isoid": "SAM", "key": "Самарская область", "lang": "ru", "lname": "Samarskaya oblast'", "name": "Самарская область", "zip": "44[3-6]"}, "RU/Санкт-Петербург": {"id": "data/RU/Санкт-Петербург", "isoid": "SPE", "key": "Санкт-Петербург", "lang": "ru", "lname": "Sankt-Peterburg", "name": "Санкт-Петербург", "zip": "19"}, "RU/Саратовская область": {"id": "data/RU/Саратовская область", "isoid": "SAR", "key": "Саратовская область", "lang": "ru", "lname": "Saratovskaya oblast'", "name": "Саратовская область", "zip": "41[0-3]"}, "RU/Сахалинская область": {"id": "data/RU/Сахалинская область", "isoid": "SAK", "key": "Сахалинская область", "lang": "ru", "lname": "Sakhalinskaya oblast'", "name": "Сахалинская область", "zip": "69[34]"}, "RU/Свердловская область": {"id": "data/RU/Свердловская область", "isoid": "SVE", "key": "Свердловская область", "lang": "ru", "lname": "Sverdlovskaya oblast'", "name": "Свердловская область", "zip": "62[0-4]"}, "RU/Севастополь": {"id": "data/RU/Севастополь", "key": "Севастополь", "lang": "ru", "lname": "Sevastopol'", "name": "Севастополь", "zip": "299"}, "RU/Смоленская область": {"id": "data/RU/Смоленская область", "isoid": "SMO", "key": "Смоленская область", "lang": "ru", "lname": "Smolenskaya oblast'", "name": "Смоленская область", "zip": "21[4-6]"}, "RU/Ставропольский край": {"id": "data/RU/Ставропольский край", "isoid": "STA", "key": "Ставропольский край", "lang": "ru", "lname": "Stavropolskiy kray", "name": "Ставропольский край", "zip": "35[5-7]"}, "RU/Тамбовская область": {"id": "data/RU/Тамбовская область", "isoid": "TAM", "key": "Тамбовская область", "lang": "ru", "lname": "Tambovskaya oblast'", "name": "Тамбовская область", "zip": "39[23]"}, "RU/Тверская область": {"id": "data/RU/Тверская область", "isoid": "TVE", "key": "Тверская область", "lang": "ru", "lname": "Tverskaya oblast'", "name": "Тверская область", "zip": "17[0-2]"}, "RU/Томская область": {"id": "data/RU/Томская область", "isoid": "TOM", "key": "Томская область", "lang": "ru", "lname": "Tomskaya oblast'", "name": "Томская область", "zip": "63[4-6]"}, "RU/Тульская область": {"id": "data/RU/Тульская область", "isoid": "TUL", "key": "Тульская область", "lang": "ru", "lname": "Tulskaya oblast'", "name": "Тульская область", "zip": "30[01]"}, "RU/Тюменская область": {"id": "data/RU/Тюменская область", "isoid": "TYU", "key": "Тюменская область", "lang": "ru", "lname": "Tyumenskaya oblast'", "name": "Тюменская область", "zip": "62[5-7]"}, "RU/Ульяновская область": {"id": "data/RU/Ульяновская область", "isoid": "ULY", "key": "Ульяновская область", "lang": "ru", "lname": "Ulyanovskaya oblast'", "name": "Ульяновская область", "zip": "43[23]"}, "RU/Хабаровский край": {"id": "data/RU/Хабаровский край", "isoid": "KHA", "key": "Хабаровский край", "lang": "ru", "lname": "Khabarovskiy kray", "name": "Хабаровский край", "zip": "68[0-2]"}, "RU/Ханты-Мансийский автономный округ": {"id": "data/RU/Ханты-Мансийский автономный округ", "isoid": "KHM", "key": "Ханты-Мансийский автономный округ", "lang": "ru", "lname": "Khanty-Mansiyskiy avtonomnyy okrug", "name": "Ханты-Мансийский автономный округ", "zip": "628"}, "RU/Челябинская область": {"id": "data/RU/Челябинская область", "isoid": "CHE", "key": "Челябинская область", "lang": "ru", "lname": "Chelyabinskaya oblast'", "name": "Челябинская область", "zip": "45[4-7]"}, "RU/Чеченская Республика": {"id": "data/RU/Чеченская Республика", "isoid": "CE", "key": "Чеченская Республика", "lang": "ru", "lname": "Chechenskaya Republits", "name": "Чеченская Республика", "zip": "36[4-6]"}, "RU/Чувашская Республика": {"id": "data/RU/Чувашская Республика", "isoid": "CU", "key": "Чувашская Республика", "lang": "ru", "lname": "Chuvashia", "name": "Чувашская Республика", "zip": "42[89]"}, "RU/Чукотский автономный округ": {"id": "data/RU/Чукотский автономный округ", "isoid": "CHU", "key": "Чукотский автономный округ", "lang": "ru", "lname": "Chukotskiy", "name": "Чукотский автономный округ", "zip": "689"}, "RU/Ямало-Ненецкий автономный округ": {"id": "data/RU/Ямало-Ненецкий автономный округ", "isoid": "YAN", "key": "Ямало-Ненецкий автономный округ", "lang": "ru", "lname": "Yamalo-Nenetskiy", "name": "Ямало-Ненецкий автономный округ", "zip": "629"}, "RU/Ярославская область": {"id": "data/RU/Ярославская область", "isoid": "YAR", "key": "Ярославская область", "lang": "ru", "lname": "Yaroslavskaya oblast'", "name": "Ярославская область", "zip": "15[0-2]"}}