{"SV": {"fmt": "%N%n%O%n%A%n%Z-%C%n%S", "id": "data/SV", "key": "SV", "lang": "es", "languages": "es", "name": "EL SALVADOR", "require": "ACS", "sub_isoids": "AH~CA~CH~CU~LI~PA~UN~MO~SM~SS~SV~SA~SO~US", "sub_keys": "Ahuachapan~Cabanas~Calatenango~Cuscatlan~La Libertad~La Paz~La Union~Morazan~San Miguel~San Salvador~San Vicente~Santa Ana~Sonsonate~Usulutan", "sub_names": "Ahuachapán~Cabañas~Chalatenango~Cuscatlán~La Libertad~La Paz~La Unión~Morazán~San Miguel~San Salvador~San Vicente~Santa Ana~Sonsonate~Usulután", "sub_zipexs": "CP 2101~CP 1201~CP 1301~CP 1401~CP 1501~CP 1601~CP 3101~CP 3201~CP 3301~CP 1101~CP 1701~CP 2201~CP 2301~CP 3401", "sub_zips": "CP 21~CP 12~CP 13~CP 14~CP 15~CP 16~CP 31~CP 32~CP 33~CP 11~CP 17~CP 22~CP 23~CP 34", "upper": "CSZ", "zip": "CP [1-3][1-7][0-2]\\d", "zipex": "CP 1101"}, "SV/Ahuachapan": {"id": "data/SV/Ahuachapan", "isoid": "AH", "key": "Ahuachapan", "lang": "es", "name": "Ahuachapán", "zip": "CP 21", "zipex": "CP 2101"}, "SV/Cabanas": {"id": "data/SV/Cabanas", "isoid": "CA", "key": "Cabanas", "lang": "es", "name": "Cabañas", "zip": "CP 12", "zipex": "CP 1201"}, "SV/Calatenango": {"id": "data/SV/Calatenango", "isoid": "CH", "key": "Calatenango", "lang": "es", "name": "Chalatenango", "zip": "CP 13", "zipex": "CP 1301"}, "SV/Cuscatlan": {"id": "data/SV/Cuscatlan", "isoid": "CU", "key": "Cuscatlan", "lang": "es", "name": "Cuscatlán", "zip": "CP 14", "zipex": "CP 1401"}, "SV/La Libertad": {"id": "data/SV/La Libertad", "isoid": "LI", "key": "La Libertad", "lang": "es", "name": "La Libertad", "zip": "CP 15", "zipex": "CP 1501"}, "SV/La Paz": {"id": "data/SV/La Paz", "isoid": "PA", "key": "La Paz", "lang": "es", "name": "La Paz", "zip": "CP 16", "zipex": "CP 1601"}, "SV/La Union": {"id": "data/SV/La Union", "isoid": "UN", "key": "La Union", "lang": "es", "name": "La Unión", "zip": "CP 31", "zipex": "CP 3101"}, "SV/Morazan": {"id": "data/SV/Morazan", "isoid": "MO", "key": "Morazan", "lang": "es", "name": "Morazán", "zip": "CP 32", "zipex": "CP 3201"}, "SV/San Miguel": {"id": "data/SV/San Miguel", "isoid": "SM", "key": "San Miguel", "lang": "es", "name": "San Miguel", "zip": "CP 33", "zipex": "CP 3301"}, "SV/San Salvador": {"id": "data/SV/San Salvador", "isoid": "SS", "key": "San Salvador", "lang": "es", "name": "San Salvador", "zip": "CP 11", "zipex": "CP 1101"}, "SV/San Vicente": {"id": "data/SV/San Vicente", "isoid": "SV", "key": "San Vicente", "lang": "es", "name": "San Vicente", "zip": "CP 17", "zipex": "CP 1701"}, "SV/Santa Ana": {"id": "data/SV/Santa Ana", "isoid": "SA", "key": "Santa Ana", "lang": "es", "name": "Santa Ana", "zip": "CP 22", "zipex": "CP 2201"}, "SV/Sonsonate": {"id": "data/SV/Sonsonate", "isoid": "SO", "key": "Sonsonate", "lang": "es", "name": "Sonsonate", "zip": "CP 23", "zipex": "CP 2301"}, "SV/Usulutan": {"id": "data/SV/Usulutan", "isoid": "US", "key": "Usulutan", "lang": "es", "name": "Usulután", "zip": "CP 34", "zipex": "CP 3401"}}