{"UY": {"fmt": "%N%n%O%n%A%n%Z %C %S", "id": "data/UY", "key": "UY", "lang": "es", "languages": "es", "name": "URUGUAY", "posturl": "http://www.correo.com.uy/index.asp?codPag=codPost&switchMapa=codPost", "sub_isoids": "AR~CA~CL~CO~DU~FS~FD~LA~MA~MO~PA~RN~RV~RO~SA~SJ~SO~TA~TT", "sub_keys": "Artigas~Canelones~Cerro Largo~Colonia~Durazno~Flores~Florida~Lavalleja~Maldonado~Montevideo~Paysandú~Río Negro~Rivera~Rocha~Salto~San José~Soriano~Tacuarembó~Treinta y Tres", "sub_zips": "55~9[01]|1[456]~37~70|75204~97~85~94|9060|97005~30~20~1|91600~60~65|60002~40~27~50~80~75|70003~45~33|30203|30204|30302|37007", "upper": "CS", "zip": "\\d{5}", "zipex": "11600"}, "UY/Artigas": {"id": "data/UY/Artigas", "isoid": "AR", "key": "Artigas", "lang": "es", "zip": "55"}, "UY/Canelones": {"id": "data/UY/Canelones", "isoid": "CA", "key": "Canelones", "lang": "es", "zip": "9[01]|1[456]"}, "UY/Cerro Largo": {"id": "data/UY/Cerro Largo", "isoid": "CL", "key": "Cerro Largo", "lang": "es", "zip": "37"}, "UY/Colonia": {"id": "data/UY/Colonia", "isoid": "CO", "key": "Colonia", "lang": "es", "zip": "70|75204"}, "UY/Durazno": {"id": "data/UY/Durazno", "isoid": "DU", "key": "Durazno", "lang": "es", "zip": "97"}, "UY/Flores": {"id": "data/UY/Flores", "isoid": "FS", "key": "Flores", "lang": "es", "zip": "85"}, "UY/Florida": {"id": "data/UY/Florida", "isoid": "FD", "key": "Florida", "lang": "es", "zip": "94|9060|97005"}, "UY/Lavalleja": {"id": "data/UY/Lavalleja", "isoid": "LA", "key": "Lavalleja", "lang": "es", "zip": "30"}, "UY/Maldonado": {"id": "data/UY/Maldonado", "isoid": "MA", "key": "Maldonado", "lang": "es", "zip": "20"}, "UY/Montevideo": {"id": "data/UY/Montevideo", "isoid": "MO", "key": "Montevideo", "lang": "es", "zip": "1|91600"}, "UY/Paysandú": {"id": "data/UY/Paysandú", "isoid": "PA", "key": "Paysandú", "lang": "es", "zip": "60"}, "UY/Rivera": {"id": "data/UY/Rivera", "isoid": "RV", "key": "Rivera", "lang": "es", "zip": "40"}, "UY/Rocha": {"id": "data/UY/Rocha", "isoid": "RO", "key": "Rocha", "lang": "es", "zip": "27"}, "UY/Río Negro": {"id": "data/UY/Río Negro", "isoid": "RN", "key": "Río Negro", "lang": "es", "zip": "65|60002"}, "UY/Salto": {"id": "data/UY/Salto", "isoid": "SA", "key": "Salto", "lang": "es", "zip": "50"}, "UY/San José": {"id": "data/UY/San José", "isoid": "SJ", "key": "San José", "lang": "es", "zip": "80"}, "UY/Soriano": {"id": "data/UY/Soriano", "isoid": "SO", "key": "Soriano", "lang": "es", "zip": "75|70003"}, "UY/Tacuarembó": {"id": "data/UY/Tacuarembó", "isoid": "TA", "key": "Tacuarembó", "lang": "es", "zip": "45"}, "UY/Treinta y Tres": {"id": "data/UY/Treinta y Tres", "isoid": "TT", "key": "Treinta y Tres", "lang": "es", "zip": "33|30203|30204|30302|37007"}}